{
  "version": 0.6,
  "generator": "Overpass API 0.7.62.8 e802775f",
  "osm3s": {
    "timestamp_osm_base": "2025-11-20T09:24:09Z",
    "timestamp_areas_base": "2025-11-20T03:47:04Z",
    "copyright": "The data included in this document is from www.openstreetmap.org. The data is made available under ODbL."
  },
  "elements": [
    {
      "type": "node",
      "id": 26573161,
      "lat": 51.5102139,
      "lon": -0.1290844,
      "tags": {
        "amenity": "cinema",
        "brand": "Odeon",
        "brand:wikidata": "Q6127470",
        "brand:wikipedia": "en:Odeon Cinemas",
        "name": "Odeon Mezzanine",
        "toilets:wheelchair": "yes",
        "wheelchair": "limited"
      }
    },
    {
      "type": "node",
      "id": 26573168,
      "lat": 51.5109335,
      "lon": -0.1304091,
      "tags": {
        "addr:city": "London",
        "addr:housenumber": "5-6",
        "addr:postcode": "WC2H 7NA",
        "addr:street": "Leicester Square",
        "amenity": "cinema",
        "brand": "Cineworld",
        "brand:wikidata": "Q5120901",
        "brand:wikipedia": "en:Cineworld",
        "fhrs:confidence_management": "5",
        "fhrs:hygiene": "5",
        "fhrs:id": "412954",
        "fhrs:local_authority_id": "00989/0005/0/001",
        "fhrs:rating": "2",
        "fhrs:structural": "15",
        "name": "Cineworld Leicester Square",
        "source:addr": "FSA Food Hygiene Ratings Database",
        "source:postcode": "FSA Food Hygiene Ratings Database",
        "website": "https://www.cineworld.co.uk/cinemas/london-leicester-square/103",
        "wheelchair": "limited",
        "wikidata": "Q3724821",
        "wikipedia": "en:Empire, Leicester Square"
      }
    },
    {
      "type": "node",
      "id": 26573173,
      "lat": 51.5112449,
      "lon": -0.1293677,
      "tags": {
        "addr:city": "London",
        "addr:housenumber": "3",
        "addr:postcode": "WC2H 7AL",
        "addr:street": "Cranbourn Street",
        "amenity": "cinema",
        "brand": "Vue",
        "brand:wikidata": "Q2535134",
        "brand:wikipedia": "en:Vue Cinemas",
        "contact:website": "https://www.myvue.com/cinema/leicester-square/about",
        "name": "Vue Leicester Square",
        "wheelchair": "yes"
      }
    },
    {
      "type": "node",
      "id": 26671967,
      "lat": 51.5095663,
      "lon": -0.1312249,
      "tags": {
        "addr:city": "London",
        "addr:housenumber": "11-18",
        "addr:postcode": "SW1Y 4DP",
        "addr:street": "Panton Street",
        "amenity": "cinema",
        "brand": "Odeon",
        "brand:wikidata": "Q6127470",
        "brand:wikipedia": "en:Odeon Cinemas",
        "fhrs:id": "411970",
        "name": "Odeon Luxe Haymarket",
        "website": "https://www.odeon.co.uk/cinemas/london-haymarket/",
        "wikidata": "Q42030169"
      }
    },
    {
      "type": "node",
      "id": 26699541,
      "lat": 51.5126577,
      "lon": -0.1306078,
      "tags": {
        "addr:city": "London",
        "addr:housenumber": "99",
        "addr:postcode": "W1D 5DY",
        "addr:street": "Shaftesbury Avenue",
        "amenity": "cinema",
        "brand": "Curzon",
        "brand:wikidata": "Q16953326",
        "check_date": "2025-10-16",
        "contact:website": "https://www.curzon.com/venues/soho/",
        "fhrs:confidence_management": "10",
        "fhrs:hygiene": "5",
        "fhrs:id": "411768",
        "fhrs:local_authority_id": "12/00121/COMM",
        "fhrs:rating": "4",
        "fhrs:structural": "5",
        "name": "Curzon Soho",
        "payment:cash": "yes",
        "payment:credit_cards": "yes",
        "payment:debit_cards": "yes",
        "postal_code": "W1D 5DY",
        "wheelchair": "yes",
        "wikidata": "Q42029812"
      }
    },
    {
      "type": "node",
      "id": 31060529,
      "lat": 51.3780368,
      "lon": -0.1246385,
      "tags": {
        "addr:city": "Croydon",
        "addr:housenumber": "21",
        "addr:postcode": "CR0 4YA",
        "addr:street": "Hesterman Way",
        "amenity": "cinema",
        "brand": "Vue",
        "brand:wikidata": "Q2535134",
        "brand:wikipedia": "en:Vue Cinemas",
        "fhrs:authority": "Croydon",
        "fhrs:id": "10622",
        "name": "Vue Purley Way",
        "website": "https://www.myvue.com/",
        "wikidata": "Q41895981"
      }
    },
    {
      "type": "node",
      "id": 39685823,
      "lat": 51.4198096,
      "lon": -0.2048792,
      "tags": {
        "addr:city": "London",
        "addr:housenumber": "39",
        "addr:postcode": "SW19 1QB",
        "addr:street": "The Broadway",
        "alt_name": "Odeon Wimbledon",
        "amenity": "cinema",
        "brand": "Odeon",
        "brand:wikidata": "Q6127470",
        "brand:wikipedia": "en:Odeon Cinemas",
        "fhrs:id": "200020",
        "name": "Odeon Wimbledon",
        "website": "https://www.odeon.co.uk/cinemas/wimbledon/",
        "wikidata": "Q42166436"
      }
    },
    {
      "type": "node",
      "id": 210745603,
      "lat": 51.5815021,
      "lon": -0.338995,
      "tags": {
        "addr:housename": "St Georges Centre",
        "addr:housenumber": "27",
        "addr:postcode": "HA1 1HS",
        "addr:street": "St Anns Road",
        "amenity": "cinema",
        "branch": "Harrow",
        "brand": "Vue",
        "brand:wikidata": "Q2535134",
        "brand:wikipedia": "en:Vue Cinemas",
        "check_date": "2024-11-17",
        "fhrs:id": "276902",
        "level": "1",
        "name": "Vue Cinema",
        "source:addr": "FHRS Open Data",
        "wheelchair": "yes"
      }
    },
    {
      "type": "node",
      "id": 245955704,
      "lat": 51.46115,
      "lon": -0.1149611,
      "tags": {
        "addr:city": "London",
        "addr:housenumber": "1",
        "addr:postcode": "SW2 1JG",
        "addr:street": "Brixton Oval",
        "amenity": "cinema",
        "bar": "yes",
        "brand": "Picturehouse Cinemas",
        "brand:wikidata": "Q7191215",
        "check_date": "2024-12-31",
        "fhrs:authority": "Lambeth",
        "fhrs:id": "483236",
        "fhrs:inspectiondate": "2013-12-12",
        "fhrs:rating": "5",
        "name": "The Ritzy",
        "wikidata": "Q7336933",
        "wikipedia": "en:Ritzy Cinema"
      }
    },
    {
      "type": "node",
      "id": 248932670,
      "lat": 51.4625014,
      "lon": -0.1381521,
      "tags": {
        "addr:city": "London",
        "addr:housenumber": "76",
        "addr:postcode": "SW4 0AT",
        "addr:street": "Venn Street",
        "alt_name": "Clapham Picturehouse",
        "amenity": "cinema",
        "bar": "yes",
        "branch": "Clapham",
        "brand": "Picturehouse Cinemas",
        "brand:wikidata": "Q7191215",
        "capacity:seats": "560",
        "check_date": "2025-06-27",
        "indoor_seating": "yes",
        "internet_access": "wlan",
        "name": "Clapham Picturehouse",
        "outdoor_seating": "yes",
        "screen": "4",
        "website": "https://www.picturehouses.com/cinema/clapham-picturehouse",
        "wikidata": "Q41820095"
      }
    },
    {
      "type": "node",
      "id": 264759489,
      "lat": 51.3647655,
      "lon": -0.1953102,
      "tags": {
        "addr:street": "St. Nicholas Way",
        "amenity": "cinema",
        "name": "Omniplex Cinema Sutton",
        "website": "https://www.omniplexcinemas.co.uk/cinema/sutton/",
        "wheelchair": "yes"
      }
    },
    {
      "type": "node",
      "id": 299028906,
      "lat": 51.5885079,
      "lon": -0.1637085,
      "tags": {
        "amenity": "cinema",
        "name": "Phoenix Cinema",
        "wikidata": "Q7186809"
      }
    },
    {
      "type": "node",
      "id": 299124495,
      "lat": 51.3721316,
      "lon": -0.0990117,
      "tags": {
        "addr:city": "Croydon",
        "addr:housename": "Croydon Clocktower",
        "addr:postcode": "CR9 1ET",
        "addr:street": "Katharine Street",
        "amenity": "cinema",
        "fhrs:authority": "Croydon",
        "fhrs:id": "4559",
        "name": "David Lean Cinema",
        "wheelchair": "yes",
        "wikidata": "Q5236404",
        "wikipedia": "en:David Lean Cinema"
      }
    },
    {
      "type": "node",
      "id": 299129216,
      "lat": 51.372906,
      "lon": -0.1009089,
      "tags": {
        "addr:city": "Croydon",
        "addr:housenumber": "14",
        "addr:postcode": "CR0 1GT",
        "addr:street": "High Street",
        "amenity": "cinema",
        "brand": "Vue",
        "brand:wikidata": "Q2535134",
        "brand:wikipedia": "en:Vue Cinemas",
        "fhrs:authority": "Croydon",
        "fhrs:id": "15177",
        "level": "2",
        "name": "Vue",
        "wheelchair": "yes"
      }
    },
    {
      "type": "node",
      "id": 300614361,
      "lat": 51.4070192,
      "lon": -0.0316159,
      "tags": {
        "addr:city": "Beckenham",
        "addr:postcode": "BR3 1DY",
        "addr:street": "High Street",
        "amenity": "cinema",
        "brand": "Odeon",
        "brand:wikidata": "Q6127470",
        "brand:wikipedia": "en:Odeon Cinemas",
        "contact:website": "https://www.odeon.co.uk/cinemas/beckenham/",
        "fhrs:id": "357244",
        "name": "Odeon Cinema",
        "source:addr": "FHRS Open Data"
      }
    },
    {
      "type": "node",
      "id": 306042840,
      "lat": 51.5343822,
      "lon": -0.1058269,
      "tags": {
        "amenity": "cinema",
        "brand": "Vue",
        "brand:wikidata": "Q2535134",
        "contact:website": "https://www.myvue.com/cinema/islington",
        "level": "1;2",
        "name": "Vue Islington",
        "opening_hours": "Mo-Fr 09:30-24:00; Sa-Su 10:30-24:00",
        "wikidata": "Q42164191"
      }
    },
    {
      "type": "node",
      "id": 371525331,
      "lat": 51.5243518,
      "lon": -0.0730953,
      "tags": {
        "addr:city": "London",
        "addr:housenumber": "35-47",
        "addr:postcode": "E1 6LA",
        "addr:street": "Bethnal Green Road",
        "amenity": "cinema",
        "name": "Rich Mix Cinema",
        "phone": "+44 20 7613 7498",
        "screen": "3",
        "source:addr": "FHRS Open Data",
        "survey:date": "2021-08-09",
        "website": "https://richmix.org.uk/",
        "wheelchair": "yes"
      }
    },
    {
      "type": "node",
      "id": 416380417,
      "lat": 51.4541535,
      "lon": -0.1934097,
      "tags": {
        "addr:city": "London",
        "addr:postcode": "SW18 4TG",
        "addr:street": "Southside Shopping Centre",
        "amenity": "cinema",
        "brand": "Cineworld",
        "brand:wikidata": "Q5120901",
        "brand:wikipedia": "en:Cineworld",
        "fhrs:authority": "Wandsworth",
        "fhrs:id": "1572527",
        "fhrs:local_authority_id": "PI/000457393",
        "layer": "1",
        "level": "1",
        "name": "Cineworld",
        "operator": "Cineworld",
        "source:addr": "FHRS Open Data",
        "website": "https://www.cineworld.co.uk/cinemas/london-wandsworth/066",
        "wheelchair": "yes"
      }
    },
    {
      "type": "node",
      "id": 452948294,
      "lat": 51.503414,
      "lon": -0.2188484,
      "tags": {
        "addr:city": "London",
        "addr:housename": "West 12 Shopping Centre",
        "addr:postcode": "W12 8PP",
        "addr:street": "Shepherd's Bush Green",
        "amenity": "cinema",
        "brand": "Vue",
        "brand:wikidata": "Q2535134",
        "brand:wikipedia": "en:Vue Cinemas",
        "fhrs:id": "914168",
        "layer": "1",
        "name": "Vue",
        "source:addr": "FHRS Open Data",
        "wheelchair": "yes"
      }
    },
    {
      "type": "node",
      "id": 498694180,
      "lat": 51.4855904,
      "lon": -0.1731524,
      "tags": {
        "addr:housenumber": "279",
        "addr:street": "King's Road",
        "amenity": "cinema",
        "brand": "Everyman Cinemas",
        "brand:wikidata": "Q5417852",
        "name": "Everyman Chelsea"
      }
    },
    {
      "type": "node",
      "id": 528097911,
      "lat": 51.5450712,
      "lon": -0.4751422,
      "tags": {
        "amenity": "cinema",
        "brand": "Odeon",
        "brand:wikidata": "Q6127470",
        "brand:wikipedia": "en:Odeon Cinemas",
        "contact:website": "https://www.odeon.co.uk/cinemas/uxbridge/",
        "level": "2",
        "name": "Uxbridge Odeon",
        "wikidata": "Q42140334"
      }
    },
    {
      "type": "node",
      "id": 668541398,
      "lat": 51.4976739,
      "lon": -0.0807865,
      "tags": {
        "addr:city": "London",
        "addr:housenumber": "10",
        "addr:postcode": "SE1 3UN",
        "addr:street": "Bermondsey Square",
        "amenity": "cinema",
        "bar": "yes",
        "name": "The Arzner",
        "opening_hours": "Mo-Su 10:00-23:00",
        "outdoor_seating": "no",
        "website": "http://thearzner.com"
      }
    },
    {
      "type": "node",
      "id": 705228239,
      "lat": 51.4650547,
      "lon": -0.1013366,
      "tags": {
        "addr:city": "London",
        "addr:housename": "Arch 259",
        "addr:housenumber": "259",
        "addr:postcode": "SE24 0HN",
        "addr:street": "Hardess Street",
        "addr:unit": "259",
        "amenity": "cinema",
        "check_date": "2023-12-26",
        "name": "Whirled Cinema",
        "phone": "+44 20 7737 6153",
        "source": "Website",
        "website": "https://www.whirledcinema.com/",
        "wikidata": "Q42035964"
      }
    },
    {
      "type": "node",
      "id": 920198785,
      "lat": 51.4119331,
      "lon": -0.2992998,
      "tags": {
        "addr:city": "Kingston upon Thames",
        "addr:housename": "The Odeon The Rotunda Centre",
        "addr:postcode": "KT1 1QP",
        "addr:street": "Clarence Street",
        "amenity": "cinema",
        "brand": "Odeon",
        "brand:wikidata": "Q6127470",
        "brand:wikipedia": "en:Odeon Cinemas",
        "fhrs:id": "1386119",
        "name": "Odeon Kingston",
        "not:addr:postcode": "KT1 1QJ",
        "source:addr": "FHRS Open Data",
        "website": "https://www.odeon.co.uk/cinemas/kingston/",
        "wheelchair": "yes"
      }
    },
    {
      "type": "node",
      "id": 931624349,
      "lat": 51.5389741,
      "lon": -0.1437574,
      "tags": {
        "addr:city": "London",
        "addr:housenumber": "14",
        "addr:postcode": "NW1 7AA",
        "addr:street": "Parkway",
        "amenity": "cinema",
        "brand": "Odeon",
        "brand:wikidata": "Q6127470",
        "brand:wikipedia": "en:Odeon Cinemas",
        "contact:website": "https://www.odeon.co.uk/cinemas/camden/",
        "fhrs:id": "424604",
        "name": "Odeon",
        "source:addr:postcode": "FSA Food Hygiene Rating Scheme open data",
        "wheelchair": "yes"
      }
    },
    {
      "type": "node",
      "id": 1097177019,
      "lat": 51.4858042,
      "lon": -0.2979129,
      "tags": {
        "amenity": "cinema",
        "name": "Watermans Arts Centre"
      }
    },
    {
      "type": "node",
      "id": 1125267112,
      "lat": 51.5747423,
      "lon": 0.1790185,
      "tags": {
        "addr:city": "Romford",
        "addr:housenumber": "1-15",
        "addr:postcode": "RM1 1AU",
        "addr:street": "Waterloo Rd",
        "amenity": "cinema",
        "brand": "Vue",
        "brand:wikidata": "Q2535134",
        "name": "Vue",
        "toilets:wheelchair": "yes",
        "wheelchair": "yes",
        "wikidata": "Q41562599"
      }
    },
    {
      "type": "node",
      "id": 1236834452,
      "lat": 51.5217117,
      "lon": -0.1117273,
      "tags": {
        "addr:housenumber": "117-119",
        "addr:street": "Clerkenwell Road",
        "amenity": "cinema",
        "name": "The nickel cinema"
      }
    },
    {
      "type": "node",
      "id": 1657024155,
      "lat": 51.4741947,
      "lon": -0.0361232,
      "tags": {
        "amenity": "cinema",
        "brand": "Curzon",
        "brand:wikidata": "Q16953326",
        "name": "Curzon Goldsmiths",
        "website": "https://www.curzongoldsmiths.com/",
        "wikidata": "Q42202393"
      }
    },
    {
      "type": "node",
      "id": 1692039757,
      "lat": 51.5481248,
      "lon": -0.1815748,
      "tags": {
        "amenity": "cinema",
        "brand": "Vue",
        "brand:wikidata": "Q2535134",
        "brand:wikipedia": "en:Vue Cinemas",
        "level": "1",
        "name": "Vue Finchley Road",
        "wikidata": "Q42183496"
      }
    },
    {
      "type": "node",
      "id": 1710144548,
      "lat": 51.5168155,
      "lon": -0.1428506,
      "tags": {
        "addr:housenumber": "307",
        "addr:street": "Regent Street",
        "amenity": "cinema",
        "check_date": "2025-04-30",
        "name": "Regent Street Cinema",
        "website": "https://www.regentstreetcinema.com/",
        "wikidata": "Q26869575",
        "wikipedia": "en:Regent Street Cinema"
      }
    },
    {
      "type": "node",
      "id": 1716046769,
      "lat": 51.500423,
      "lon": -0.1780006,
      "tags": {
        "amenity": "cinema",
        "name": "Imperial Cinema",
        "source": "www.icucinema.co.uk"
      }
    },
    {
      "type": "node",
      "id": 1950561370,
      "lat": 51.5078481,
      "lon": -0.0224965,
      "tags": {
        "addr:city": "London",
        "addr:housename": "Ledger Building",
        "addr:housenumber": "4",
        "addr:postcode": "E14 4AL",
        "addr:street": "Hertsmere Road",
        "amenity": "cinema",
        "branch": "West India Quay",
        "brand": "Cineworld",
        "brand:wikidata": "Q5120901",
        "brand:wikipedia": "en:Cineworld",
        "contact:website": "https://www.cineworld.co.uk/cinemas/london-west-india-quay/041",
        "fhrs:id": "558272",
        "fhrs:local_authority_id": "154394",
        "name": "Cineworld",
        "screen": "10",
        "source:addr": "FHRS Open Data",
        "wheelchair": "yes"
      }
    },
    {
      "type": "node",
      "id": 2763450295,
      "lat": 51.5563016,
      "lon": -0.2839283,
      "tags": {
        "addr:city": "London",
        "addr:housename": "London Designer Outlet",
        "addr:postcode": "HA9 0TG",
        "addr:street": "Wembley Park Boulevard",
        "addr:unit": "Unit 7",
        "amenity": "cinema",
        "brand": "Cineworld",
        "brand:wikidata": "Q5120901",
        "level": "4",
        "name": "Cineworld Wembley",
        "operator": "Cineworld plc",
        "website": "https://www.cineworld.co.uk/cinemas/london-wembley/082",
        "wikidata": "Q42166251"
      }
    },
    {
      "type": "node",
      "id": 2785097711,
      "lat": 51.4975349,
      "lon": -0.1365788,
      "tags": {
        "addr:city": "London",
        "addr:country": "GB",
        "addr:housenumber": "58",
        "addr:postcode": "SW1E 6QW",
        "addr:street": "Victoria Street",
        "amenity": "cinema",
        "brand": "Curzon",
        "brand:wikidata": "Q16953326",
        "fhrs:id": "741340",
        "name": "Curzon Victoria",
        "toilets:wheelchair": "yes",
        "website": "https://www.curzon.com/venues/victoria/",
        "wheelchair": "yes"
      }
    },
    {
      "type": "node",
      "id": 3193683067,
      "lat": 51.5794872,
      "lon": 0.1852042,
      "tags": {
        "addr:city": "Romford",
        "addr:housename": "Level 3",
        "addr:postcode": "RM1 3EE",
        "addr:street": "Mercury Shopping Centre",
        "amenity": "cinema",
        "contact:facebook": "https://www.facebook.com/lumiereromford/",
        "image": "https://upload.wikimedia.org/wikipedia/commons/2/27/Lumiere_Cinema_Romford.jpg",
        "name": "Lumiere Cinema Romford",
        "opening_date": "2025",
        "operator": "Romford Film Trust",
        "payment:cash": "yes",
        "payment:contactless": "yes",
        "payment:credit_cards": "yes",
        "payment:debit_cards": "yes",
        "phone": "+44 330 441 4580",
        "screen": "8",
        "website": "https://www.lumiereromford.com/",
        "wheelchair": "yes"
      }
    },
    {
      "type": "node",
      "id": 3357929234,
      "lat": 51.508942,
      "lon": -0.1343413,
      "tags": {
        "amenity": "cinema",
        "brand": "Vue",
        "brand:wikidata": "Q2535134",
        "brand:wikipedia": "en:Vue Cinemas",
        "check_date": "2025-07-30",
        "name": "Vue",
        "wheelchair": "limited"
      }
    },
    {
      "type": "node",
      "id": 3384625336,
      "lat": 51.5849488,
      "lon": -0.020193,
      "tags": {
        "addr:city": "London",
        "addr:country": "GB",
        "addr:housenumber": "267",
        "addr:postcode": "E17 7FD",
        "addr:street": "High Street",
        "addr:suburb": "Walthamstow",
        "amenity": "cinema",
        "name": "Forest Cinemas",
        "old_name": "Empire Cinemas Walthamstow",
        "was:operator": "Empire Cinemas",
        "website": "https://forestcinema.co.uk"
      }
    },
    {
      "type": "node",
      "id": 3767748685,
      "lat": 51.5244086,
      "lon": -0.0739235,
      "tags": {
        "addr:city": "London",
        "addr:country": "GB",
        "addr:housenumber": "64-66",
        "addr:postcode": "E2 7DP",
        "addr:street": "Redchurch Street",
        "amenity": "cinema",
        "name": "Electric Cinema",
        "phone": "+44 20 3350 3490",
        "website": "https://electriccinema.co.uk/",
        "wikidata": "Q42204135"
      }
    },
    {
      "type": "node",
      "id": 3921178316,
      "lat": 51.5106337,
      "lon": -0.1336442,
      "tags": {
        "addr:city": "London",
        "addr:postcode": "W1D 7DH",
        "addr:street": "Great Windmill street",
        "air_conditioning": "yes",
        "amenity": "cinema",
        "bar": "yes",
        "brand": "Picturehouse Cinemas",
        "brand:wikidata": "Q7191215",
        "check_date": "2024-12-08",
        "diet:vegan": "yes",
        "diet:vegetarian": "yes",
        "food": "yes",
        "name": "Picturehouse Central",
        "opening_hours": "Mo-Su",
        "payment:apple_pay": "yes",
        "payment:cash": "yes",
        "payment:contactless": "yes",
        "payment:credit_cards": "yes",
        "payment:debit_cards": "yes",
        "payment:google_pay": "yes",
        "phone": "+44 871 902 5755",
        "screen": "7",
        "website": "https://www.picturehouses.com/cinema/Picturehouse_Central",
        "wheelchair": "yes",
        "wikidata": "Q42030269"
      }
    },
    {
      "type": "node",
      "id": 4035396456,
      "lat": 51.4745186,
      "lon": -0.0245073,
      "tags": {
        "addr:city": "London",
        "addr:housenumber": "39",
        "addr:postcode": "SE8 4PQ",
        "addr:street": "Deptford Broadway",
        "amenity": "cinema",
        "fhrs:id": "1041427",
        "name": "Deptford Cinema",
        "website": "http://www.deptfordcinema.org",
        "wikidata": "Q42158297"
      }
    },
    {
      "type": "node",
      "id": 4145029892,
      "lat": 51.5236118,
      "lon": -0.0719999,
      "tags": {
        "addr:city": "London",
        "addr:country": "GB",
        "addr:housenumber": "97-99",
        "addr:postcode": "E1 6HR",
        "addr:street": "Sclater Street",
        "amenity": "cinema",
        "capacity": "40",
        "fhrs:id": "696148",
        "fhrs:local_authority_id": "19353",
        "name": "Close-Up Film Centre",
        "operator": "Close-Up Film Centre Limited",
        "screen": "1",
        "source:addr": "FHRS Open Data",
        "website": "https://www.closeupfilmcentre.com/",
        "wikidata": "Q42204126"
      }
    },
    {
      "type": "node",
      "id": 4446849834,
      "lat": 51.4592448,
      "lon": -0.3070003,
      "tags": {
        "addr:city": "Richmond",
        "addr:postcode": "TW9 1TJ",
        "addr:street": "Water Lane",
        "amenity": "cinema",
        "brand": "Curzon",
        "brand:wikidata": "Q16953326",
        "name": "Curzon Richmond",
        "source": "gps+mapnoter",
        "website": "https://www.curzon.com/venues/richmond/",
        "wikidata": "Q42203890"
      }
    },
    {
      "type": "node",
      "id": 4568748349,
      "lat": 51.4203554,
      "lon": -0.2052534,
      "tags": {
        "addr:city": "London",
        "addr:housenumber": "23",
        "addr:postcode": "SW19 1RE",
        "addr:street": "The Broadway",
        "amenity": "cinema",
        "brand": "Curzon",
        "brand:wikidata": "Q16953326",
        "fhrs:id": "1013855",
        "name": "Curzon Wimbledon",
        "operator:wikidata": "Q16953326",
        "shop": "video;music",
        "website": "https://www.curzon.com/venues/wimbledon/",
        "wikidata": "Q42166369"
      }
    },
    {
      "type": "node",
      "id": 4617424209,
      "lat": 51.5138199,
      "lon": -0.0689221,
      "tags": {
        "addr:city": "London",
        "addr:housenumber": "4",
        "addr:postcode": "E1 8PS",
        "addr:street": "Canter Way",
        "amenity": "cinema",
        "brand": "Curzon",
        "brand:wikidata": "Q16953326",
        "check_date": "2024-09-08",
        "cuisine": "coffee_shop;pizza",
        "fhrs:id": "1092758",
        "food": "yes",
        "name": "Curzon Aldgate",
        "payment:credit_cards": "yes",
        "payment:debit_cards": "yes",
        "screen": "4",
        "toilets:wheelchair": "yes",
        "website": "https://www.curzoncinemas.com/aldgate/info",
        "wikidata": "Q42046988"
      }
    },
    {
      "type": "node",
      "id": 4754870662,
      "lat": 51.5377019,
      "lon": -0.1269986,
      "tags": {
        "addr:city": "London",
        "addr:housenumber": "1",
        "addr:postcode": "N1C 4BP",
        "addr:street": "Handyside Street",
        "alt_name": "Everyman On The Corner (Screen 4)",
        "amenity": "cinema",
        "name": "Everyman On The Corner",
        "website": "https://www.everymancinema.com/kings-cross"
      }
    },
    {
      "type": "node",
      "id": 4976196830,
      "lat": 51.6038551,
      "lon": -0.1732082,
      "tags": {
        "addr:city": "London",
        "addr:postcode": "N12 0GL",
        "addr:street": "Chaplin Square",
        "amenity": "cinema",
        "brand": "Vue",
        "brand:wikidata": "Q2535134",
        "fhrs:id": "989331",
        "name": "Vue Cinema",
        "toilets": "yes",
        "toilets:access": "customers",
        "toilets:wheelchair": "yes"
      }
    },
    {
      "type": "node",
      "id": 5376964904,
      "lat": 51.5375291,
      "lon": -0.1240562,
      "tags": {
        "addr:city": "London",
        "addr:housenumber": "14-18",
        "addr:postcode": "N1C 4DN",
        "addr:street": "Handyside Street",
        "alt_name": "Everyman King's Cross (Screen 1, 2 & 3)",
        "amenity": "cinema",
        "brand": "Everyman Cinemas",
        "brand:wikidata": "Q5417852",
        "brand:wikipedia": "en:Everyman Cinemas",
        "name": "Everyman King's Cross",
        "website": "https://www.everymancinema.com/kings-cross",
        "wikidata": "Q42212892"
      }
    },
    {
      "type": "node",
      "id": 6307635600,
      "lat": 51.4190933,
      "lon": -0.0791334,
      "tags": {
        "addr:city": "London",
        "addr:housenumber": "25",
        "addr:postcode": "SE19 2TE",
        "addr:street": "Church Road",
        "amenity": "cinema",
        "brand": "Everyman Cinemas",
        "brand:wikidata": "Q5417852",
        "contact:facebook": "EverymanCinemas",
        "contact:instagram": "everymancinema",
        "fhrs:id": "1078424",
        "name": "Everyman",
        "source:addr": "FHRS Open Data",
        "website": "https://www.everymancinema.com/venues-list/x11dr-everyman-crystal-palace/",
        "wikidata": "Q116359514"
      }
    },
    {
      "type": "node",
      "id": 6338253691,
      "lat": 51.5205013,
      "lon": -0.1565601,
      "tags": {
        "addr:housenumber": "96",
        "addr:street": "Baker Street",
        "amenity": "cinema",
        "brand": "Everyman Cinemas",
        "brand:wikidata": "Q5417852",
        "check_date": "2025-11-01",
        "level": "-1",
        "name": "Everyman",
        "website": "https://www.everymancinema.com/baker-street"
      }
    },
    {
      "type": "node",
      "id": 6345003067,
      "lat": 51.4825125,
      "lon": -0.1469763,
      "tags": {
        "addr:city": "London",
        "addr:housenumber": "22",
        "addr:postcode": "SW11 8AB",
        "addr:street": "Arches Lane",
        "amenity": "cinema",
        "contact:email": "boxoffice@archlightcinemas.co.uk",
        "contact:phone": "+44 20 3330 7120",
        "contact:website": "https://www.archlightcinema.co.uk/",
        "fhrs:id": "1700793",
        "name": "Archlight Cinema"
      }
    },
    {
      "type": "node",
      "id": 6589760000,
      "lat": 51.4330712,
      "lon": -0.1029573,
      "tags": {
        "amenity": "cinema",
        "brand": "Picturehouse Cinemas",
        "brand:wikidata": "Q7191215",
        "name": "West Norwood Picturehouse",
        "screen": "4",
        "website": "https://www.picturehouses.com/cinema/west-norwood-picturehouse"
      }
    },
    {
      "type": "node",
      "id": 6687236123,
      "lat": 51.3765645,
      "lon": 0.1013825,
      "tags": {
        "addr:city": "Orpington",
        "addr:postcode": "BR6 0TW",
        "amenity": "cinema",
        "brand": "Odeon",
        "brand:wikidata": "Q6127470",
        "brand:wikipedia": "en:Odeon Cinemas",
        "contact:website": "https://www.odeon.co.uk/cinemas/orpington/",
        "fhrs:id": "916712",
        "name": "Odeon",
        "opening_hours:covid19": "closed",
        "phone": "+44 333 014 4501",
        "screen": "7",
        "wikidata": "Q41749792"
      }
    },
    {
      "type": "node",
      "id": 7179603220,
      "lat": 51.5508149,
      "lon": -0.1657783,
      "tags": {
        "addr:city": "London",
        "addr:housenumber": "203",
        "addr:postcode": "NW3 4QG",
        "addr:street": "Haverstock Hill",
        "amenity": "cinema",
        "brand": "Everyman Cinemas",
        "brand:wikidata": "Q5417852",
        "check_date": "2025-02-22",
        "entrance": "yes",
        "name": "Everyman",
        "payment:cash": "yes",
        "payment:mastercard": "yes",
        "payment:visa": "yes",
        "screen": "1",
        "website": "https://www.everymancinema.com/",
        "wheelchair": "limited",
        "wikidata": "Q42163105"
      }
    },
    {
      "type": "node",
      "id": 7182075445,
      "lat": 51.5061329,
      "lon": -0.0178293,
      "tags": {
        "addr:city": "London",
        "addr:housenumber": "1",
        "addr:postcode": "E14 5AR",
        "addr:street": "Crossrail Place",
        "addr:unit": "Unit 44",
        "amenity": "cinema",
        "branch": "Canary Wharf",
        "brand": "Everyman Cinemas",
        "brand:wikidata": "Q5417852",
        "contact:website": "https://www.everymancinema.com/canary-wharf",
        "fhrs:id": "842612",
        "level": "-2",
        "name": "Everyman",
        "screen": "3",
        "wheelchair": "yes"
      }
    },
    {
      "type": "node",
      "id": 7756557948,
      "lat": 51.4329339,
      "lon": -0.0199365,
      "tags": {
        "amenity": "cinema",
        "name": "Bellingham Film Palace"
      }
    },
    {
      "type": "node",
      "id": 7930695624,
      "lat": 51.4945283,
      "lon": -0.1771484,
      "tags": {
        "addr:city": "London",
        "addr:housenumber": "17",
        "addr:postcode": "SW7 2DT",
        "addr:street": "Queensbury Place",
        "amenity": "cinema",
        "name": "Ciné Lumière",
        "opening_hours": "Mo-Fr 09:00-21:30; Sa, Su 10:00-21:30",
        "website": "https://www.institut-francais.org.uk/cine-lumiere/",
        "wikidata": "Q39594850"
      }
    },
    {
      "type": "node",
      "id": 8348478722,
      "lat": 51.5083106,
      "lon": -0.066645,
      "tags": {
        "addr:city": "London",
        "addr:housenumber": "150",
        "addr:postcode": "E1W 2AH",
        "addr:street": "Vaughan Way",
        "amenity": "cinema",
        "description": "This is a private Cinema for the Residents of the London Dock",
        "name": "London Dock - Residents Cinema",
        "opening_hours": "Mo-Su 10:00-22:00"
      }
    },
    {
      "type": "node",
      "id": 8629753788,
      "lat": 51.5104293,
      "lon": -0.2259926,
      "tags": {
        "addr:housenumber": "101",
        "addr:street": "Wood Lane",
        "amenity": "cinema",
        "name": "Electric Cinema",
        "website": "https://www.electriccinema.co.uk/cinemas/whitecity/"
      }
    },
    {
      "type": "node",
      "id": 8819117410,
      "lat": 51.5386355,
      "lon": -0.1036228,
      "tags": {
        "addr:city": "London",
        "addr:housenumber": "13",
        "addr:postcode": "N1 1TU",
        "addr:street": "Esther Anne Place",
        "amenity": "cinema",
        "brand": "Odeon",
        "brand:wikidata": "Q6127470",
        "name": "Odeon Luxe & Dine",
        "website": "https://www.odeon.co.uk/cinemas/islington/"
      }
    },
    {
      "type": "node",
      "id": 9056076209,
      "lat": 51.4884965,
      "lon": -0.3280474,
      "tags": {
        "access": "private",
        "amenity": "cinema",
        "name": "Sky Cinema",
        "note": "Access for Sky employees only.",
        "payment:cash": "no",
        "screen": "1"
      }
    },
    {
      "type": "node",
      "id": 9120392029,
      "lat": 51.5288806,
      "lon": -0.083797,
      "tags": {
        "addr:housenumber": "55",
        "addr:street": "Pitfield Street",
        "amenity": "cinema",
        "architect": "Casper Mueller Kneer",
        "brand": "Curzon",
        "brand:wikidata": "Q16953326",
        "brand:wikipedia": "en:Curzon Cinemas",
        "fhrs:id": "1382277",
        "food": "yes",
        "name": "Curzon Hoxton",
        "website": "https://www.curzon.com/venues/curzon-hoxton/"
      }
    },
    {
      "type": "node",
      "id": 9333021746,
      "lat": 51.5065997,
      "lon": -0.2684113,
      "tags": {
        "addr:city": "London",
        "addr:floor": "G",
        "addr:housename": "The Library",
        "addr:postcode": "W3 6NA",
        "addr:street": "High Street",
        "addr:town": "Acton",
        "amenity": "cinema",
        "check_date": "2025-07-06",
        "level": "0",
        "name": "Act One Cinema",
        "screen": "1",
        "website": "https://actonecinema.co.uk/",
        "wheelchair": "yes",
        "wikidata": "Q110074635"
      }
    },
    {
      "type": "node",
      "id": 9333538050,
      "lat": 51.4185688,
      "lon": 0.00135,
      "tags": {
        "addr:city": "Bromley",
        "addr:housenumber": "94",
        "addr:postcode": "BR1 4JU",
        "addr:street": "Bromley Hill",
        "amenity": "cinema",
        "description": "Laser Quest is a non-contact sci-fi adventure for people of all ages and abilities.",
        "email": "info@laserquestbromley.com",
        "name": "Laser Quest & VR Centre Bromley",
        "opening_hours": "Mo-Th 15:00-21:00; Fr 15:00-22:00; Sa,Su 10:00-22:00",
        "phone": "+44 2 084 667 689"
      }
    },
    {
      "type": "node",
      "id": 9405724041,
      "lat": 51.5099104,
      "lon": -0.1302154,
      "tags": {
        "addr:city": "London",
        "addr:housenumber": "38",
        "addr:postcode": "WC2H 7DX",
        "addr:street": "Leicester Square",
        "amenity": "cinema",
        "brand": "Odeon",
        "brand:wikidata": "Q6127470",
        "brand:wikipedia": "en:Odeon Cinemas",
        "check_date": "2025-05-07",
        "description": "Entrance at ground level, cinema is underground",
        "fhrs:id": "1398564",
        "name": "Odeon Luxe West End",
        "screen": "2",
        "website": "https://www.odeon.co.uk/cinemas/london-west-end/",
        "wikidata": "Q3349143",
        "wikipedia": "en:Odeon Luxe West End"
      }
    },
    {
      "type": "node",
      "id": 9519228592,
      "lat": 51.565068,
      "lon": -0.1074654,
      "tags": {
        "addr:city": "London",
        "addr:housenumber": "17",
        "addr:postcode": "N4 3FU",
        "addr:street": "City North Place",
        "addr:unit": "1",
        "amenity": "cinema",
        "brand": "Picturehouse Cinemas",
        "brand:wikidata": "Q7191215",
        "brand:wikipedia": "en:Picturehouse Cinemas",
        "name": "Finsbury Park Picturehouse",
        "screen": "7",
        "website": "https://www.picturehouses.com/cinema/finsbury-park"
      }
    },
    {
      "type": "node",
      "id": 9654279964,
      "lat": 51.4506065,
      "lon": 0.0568051,
      "tags": {
        "addr:city": "London",
        "addr:housenumber": "174",
        "addr:postcode": "SE9 1BJ",
        "addr:street": "Eltham High Street",
        "addr:suburb": "Eltham",
        "amenity": "cinema",
        "brand": "Vue",
        "brand:wikidata": "Q2535134",
        "fhrs:id": "1154240",
        "name": "Vue",
        "screen": "6",
        "website": "https://www.myvue.com/cinema/eltham/about"
      }
    },
    {
      "type": "node",
      "id": 9733052917,
      "lat": 51.5223614,
      "lon": -0.0810416,
      "tags": {
        "amenity": "cinema",
        "name": "Rooftop Film Club"
      }
    },
    {
      "type": "node",
      "id": 9733055717,
      "lat": 51.5416661,
      "lon": -0.0011234,
      "tags": {
        "amenity": "cinema",
        "name": "Rooftop Film Club",
        "opening_hours": "May-Oct; PH"
      }
    },
    {
      "type": "node",
      "id": 9866083391,
      "lat": 51.5127858,
      "lon": -0.3043045,
      "tags": {
        "amenity": "cinema",
        "check_date": "2024-03-01",
        "level": "-1;0",
        "name": "Ealing Project",
        "operator": "Really Local Group",
        "screen": "3",
        "toilets": "yes",
        "website": "https://www.ealingproject.co.uk",
        "wheelchair": "yes"
      }
    },
    {
      "type": "node",
      "id": 9960451065,
      "lat": 51.5056351,
      "lon": -0.0922029,
      "tags": {
        "addr:city": "London",
        "addr:housename": "Dirty Lane",
        "addr:housenumber": "3",
        "addr:postcode": "SE1 9PA",
        "addr:street": "Dirty Lane",
        "amenity": "cinema",
        "branch": "Borough Yards",
        "brand": "Everyman Cinemas",
        "brand:wikidata": "Q5417852",
        "fhrs:id": "1468356",
        "name": "Everyman",
        "source:addr": "FHRS Open Data",
        "website": "https://www.everymancinema.com/"
      }
    },
    {
      "type": "node",
      "id": 10124962791,
      "lat": 51.512233,
      "lon": -0.3044871,
      "tags": {
        "amenity": "cinema",
        "check_date": "2024-10-02",
        "level": "-1;0",
        "name": "Ealing Project",
        "operator": "Really Local Group",
        "screen": "3",
        "toilets": "yes",
        "wheelchair": "yes"
      }
    },
    {
      "type": "node",
      "id": 10255674577,
      "lat": 51.459185,
      "lon": -0.1922538,
      "tags": {
        "amenity": "cinema",
        "name": "Backyard Cinema",
        "website": "https://www.backyardcinema.co.uk/"
      }
    },
    {
      "type": "node",
      "id": 10554856531,
      "lat": 51.5061096,
      "lon": -0.1311127,
      "tags": {
        "amenity": "cinema",
        "check_date": "2023-01-14",
        "name": "ICA Cinema",
        "screen": "2"
      }
    },
    {
      "type": "node",
      "id": 10583928430,
      "lat": 51.5574848,
      "lon": 0.073899,
      "tags": {
        "amenity": "cinema",
        "brand": "Cineworld",
        "brand:wikidata": "Q5120901",
        "check_date": "2025-04-04",
        "name": "Cineworld",
        "website": "https://www.cineworld.co.uk/cinemas/london-ilford/060"
      }
    },
    {
      "type": "node",
      "id": 11047352452,
      "lat": 51.5422302,
      "lon": -0.1434672,
      "tags": {
        "addr:city": "London",
        "addr:postcode": "NW1 8QD",
        "addr:street": "Dockray Place",
        "amenity": "cinema",
        "brand": "Curzon",
        "brand:wikidata": "Q16953326",
        "name": "Curzon Camden",
        "outdoor_seating": "no"
      }
    },
    {
      "type": "node",
      "id": 11287168754,
      "lat": 51.5119899,
      "lon": -0.3068819,
      "tags": {
        "addr:floor": "G,1",
        "amenity": "cinema",
        "brand": "Picturehouse Cinemas",
        "brand:wikidata": "Q7191215",
        "check_date": "2023-12-22",
        "internet_access": "wlan",
        "internet_access:fee": "customers",
        "level": "0",
        "name": "Ealing Picturehouse",
        "payment:cash": "yes",
        "payment:credit_cards": "yes",
        "payment:debit_cards": "yes",
        "screen": "8",
        "toilets": "yes",
        "website": "https://picturehouses.com",
        "wheelchair": "yes"
      }
    },
    {
      "type": "node",
      "id": 11709415903,
      "lat": 51.49721,
      "lon": -0.1777493,
      "tags": {
        "alt_name": "Science Museum IMAX",
        "amenity": "cinema",
        "name": "The Ronson Theatre",
        "screen": "1",
        "website": "https://www.sciencemuseum.org.uk/imax-cinema",
        "wikidata": "Q42042496"
      }
    },
    {
      "type": "node",
      "id": 11809363653,
      "lat": 51.4930902,
      "lon": -0.251007,
      "tags": {
        "addr:housenumber": "94-96",
        "addr:street": "Chiswick High Road",
        "amenity": "cinema",
        "check_date": "2024-04-11",
        "level": "0",
        "name": "The Chiswick Cinema",
        "website": "https://www.chiswickcinema.co.uk"
      }
    },
    {
      "type": "node",
      "id": 11861674142,
      "lat": 51.4695854,
      "lon": -0.3626798,
      "tags": {
        "amenity": "cinema",
        "brand": "Cineworld",
        "brand:wikidata": "Q5120901",
        "name": "Cineworld",
        "website": "https://www.cineworld.co.uk/cinemas/london-hounslow/118"
      }
    },
    {
      "type": "node",
      "id": 12213877974,
      "lat": 51.5424397,
      "lon": -0.0105386,
      "tags": {
        "addr:city": "London",
        "addr:housenumber": "4",
        "addr:postcode": "E20 1JQ",
        "addr:street": "Redman Place",
        "amenity": "cinema",
        "brand": "Everyman Cinemas",
        "brand:wikidata": "Q5417852",
        "check_date": "2024-12-19",
        "fhrs:id": "1767026",
        "name": "Everyman",
        "screen": "3",
        "source:addr": "cinema website",
        "start_date": "2024-12-17"
      }
    },
    {
      "type": "node",
      "id": 12633147070,
      "lat": 51.5818917,
      "lon": -0.1200548,
      "tags": {
        "addr:city": "London",
        "addr:housenumber": "159A",
        "addr:postcode": "N8 9BT",
        "addr:street": "Tottenham Lane",
        "amenity": "cinema",
        "name": "ArtHouse Crouch End",
        "source": "OS",
        "website": "https://www.arthousecrouchend.co.uk/",
        "wikidata": "Q42119644"
      }
    },
    {
      "type": "node",
      "id": 12633147075,
      "lat": 51.5816373,
      "lon": -0.1208243,
      "tags": {
        "amenity": "cinema",
        "bar": "yes",
        "brand": "Picturehouse Cinemas",
        "brand:wikidata": "Q7191215",
        "capacity:seats": "566",
        "name": "Crouch End Picturehouse",
        "old_brand": "Cineworld",
        "old_brand:wikidata": "Q5120901",
        "rental": "yes",
        "screen": "5",
        "wikidata": "Q42119650"
      }
    },
    {
      "type": "way",
      "id": 4270352,
      "bounds": {
        "minlat": 51.6328249,
        "minlon": -0.0379013,
        "maxlat": 51.6335044,
        "maxlon": -0.0366106
      },
      "nodes": [
        25637025, 25636982, 1175493267, 1175493217, 1175493199, 1175493213,
        25636999, 25637017, 10605201895, 10605201893, 10605201890, 10605201889,
        10605201888, 10605201891, 10605201892, 10605201894, 25637025
      ],
      "geometry": [
        {
          "lat": 51.6330147,
          "lon": -0.0379013
        },
        {
          "lat": 51.6335044,
          "lon": -0.0376746
        },
        {
          "lat": 51.6334489,
          "lon": -0.0373639
        },
        {
          "lat": 51.6335003,
          "lon": -0.0373401
        },
        {
          "lat": 51.6334208,
          "lon": -0.0368947
        },
        {
          "lat": 51.6333695,
          "lon": -0.0369184
        },
        {
          "lat": 51.6333146,
          "lon": -0.0366106
        },
        {
          "lat": 51.6328249,
          "lon": -0.0368373
        },
        {
          "lat": 51.6328688,
          "lon": -0.0370836
        },
        {
          "lat": 51.6328873,
          "lon": -0.037075
        },
        {
          "lat": 51.6329035,
          "lon": -0.037166
        },
        {
          "lat": 51.6328754,
          "lon": -0.037179
        },
        {
          "lat": 51.6329272,
          "lon": -0.0374694
        },
        {
          "lat": 51.6329553,
          "lon": -0.0374564
        },
        {
          "lat": 51.6329862,
          "lon": -0.0376293
        },
        {
          "lat": 51.6329677,
          "lon": -0.0376378
        },
        {
          "lat": 51.6330147,
          "lon": -0.0379013
        }
      ],
      "tags": {
        "addr:city": "London",
        "addr:postcode": "N9 0AS",
        "addr:street": "Picketts Lock Lane",
        "amenity": "cinema",
        "brand": "Odeon",
        "brand:wikidata": "Q6127470",
        "building": "yes",
        "contact:website": "https://www.odeon.co.uk/cinemas/lee-valley/",
        "name": "Odeon Lee Valley",
        "operator": "Odeon",
        "wikidata": "Q42162360"
      }
    },
    {
      "type": "way",
      "id": 4421348,
      "bounds": {
        "minlat": 51.6497946,
        "minlon": -0.0615919,
        "maxlat": 51.6506551,
        "maxlon": -0.0603353
      },
      "nodes": [
        27091603, 27091604, 27091605, 27091606, 27091607, 27091608, 27091609,
        27094651, 3160210318, 27091610, 27094649, 27091611, 27091612, 27091613,
        27091614, 27091617, 27091615, 27091618, 27091603
      ],
      "geometry": [
        {
          "lat": 51.6506551,
          "lon": -0.06088
        },
        {
          "lat": 51.6505525,
          "lon": -0.0603353
        },
        {
          "lat": 51.6503328,
          "lon": -0.0604212
        },
        {
          "lat": 51.6503128,
          "lon": -0.0603353
        },
        {
          "lat": 51.6501531,
          "lon": -0.0604104
        },
        {
          "lat": 51.6500242,
          "lon": -0.0603971
        },
        {
          "lat": 51.6499317,
          "lon": -0.0603935
        },
        {
          "lat": 51.6498865,
          "lon": -0.0604833
        },
        {
          "lat": 51.6498713,
          "lon": -0.0605094
        },
        {
          "lat": 51.6498152,
          "lon": -0.0606054
        },
        {
          "lat": 51.6497946,
          "lon": -0.0607467
        },
        {
          "lat": 51.6498065,
          "lon": -0.0608418
        },
        {
          "lat": 51.6498891,
          "lon": -0.0612314
        },
        {
          "lat": 51.6499998,
          "lon": -0.0615919
        },
        {
          "lat": 51.6501135,
          "lon": -0.0615462
        },
        {
          "lat": 51.6502585,
          "lon": -0.0614658
        },
        {
          "lat": 51.6504287,
          "lon": -0.0613796
        },
        {
          "lat": 51.6503556,
          "lon": -0.0610302
        },
        {
          "lat": 51.6506551,
          "lon": -0.06088
        }
      ],
      "tags": {
        "amenity": "cinema",
        "brand": "Cineworld",
        "brand:wikidata": "Q5120901",
        "building": "cinema",
        "name": "Cineworld Enfield",
        "operator": "Cineworld",
        "toilets:wheelchair": "yes",
        "website": "https://www.cineworld.co.uk/cinemas/london-enfield/048",
        "wheelchair": "yes",
        "wheelchair:description": "There is a lift to go upstairs for more screens. But be aware that the lift might be faulty.",
        "wikidata": "Q42162714"
      }
    },
    {
      "type": "way",
      "id": 14495071,
      "bounds": {
        "minlat": 51.521036,
        "minlon": -0.0514373,
        "maxlat": 51.5216466,
        "maxlon": -0.0510406
      },
      "nodes": [
        142464549, 142464540, 142464541, 142464543, 142464544, 7688129808,
        142464546, 142464547, 7688129794, 7688129793, 142464548, 142464549
      ],
      "geometry": [
        {
          "lat": 51.5213097,
          "lon": -0.0514129
        },
        {
          "lat": 51.5216361,
          "lon": -0.0514373
        },
        {
          "lat": 51.5216466,
          "lon": -0.0510474
        },
        {
          "lat": 51.5210481,
          "lon": -0.0510406
        },
        {
          "lat": 51.521036,
          "lon": -0.0511799
        },
        {
          "lat": 51.5211891,
          "lon": -0.0511783
        },
        {
          "lat": 51.5212568,
          "lon": -0.0511785
        },
        {
          "lat": 51.5212587,
          "lon": -0.0512599
        },
        {
          "lat": 51.5212822,
          "lon": -0.0512593
        },
        {
          "lat": 51.5212813,
          "lon": -0.0513272
        },
        {
          "lat": 51.5213087,
          "lon": -0.0513276
        },
        {
          "lat": 51.5213097,
          "lon": -0.0514129
        }
      ],
      "tags": {
        "addr:city": "London",
        "addr:housenumber": "93-95",
        "addr:postcode": "E1 4UJ",
        "addr:street": "Mile End Road",
        "amenity": "cinema",
        "building": "yes",
        "fhrs:id": "73356",
        "name": "Genesis Cinema",
        "not:brand:wikidata": "Q21451523",
        "website": "https://genesiscinema.co.uk/",
        "wikidata": "Q32271096"
      }
    },
    {
      "type": "way",
      "id": 22476427,
      "bounds": {
        "minlat": 51.4434251,
        "minlon": -0.4053346,
        "maxlat": 51.4442898,
        "maxlon": -0.403932
      },
      "nodes": [
        241162285, 241162297, 241162311, 241162319, 2589632821, 2589632820,
        2589632818, 2589632819, 2589632816, 2589632815, 2589632814, 7026450532,
        241162285
      ],
      "geometry": [
        {
          "lat": 51.4439427,
          "lon": -0.4053346
        },
        {
          "lat": 51.4442898,
          "lon": -0.4047851
        },
        {
          "lat": 51.4437825,
          "lon": -0.403932
        },
        {
          "lat": 51.4434251,
          "lon": -0.4044879
        },
        {
          "lat": 51.4436196,
          "lon": -0.404806
        },
        {
          "lat": 51.4437047,
          "lon": -0.4046737
        },
        {
          "lat": 51.4437201,
          "lon": -0.4046991
        },
        {
          "lat": 51.4437246,
          "lon": -0.4048668
        },
        {
          "lat": 51.4438194,
          "lon": -0.4048622
        },
        {
          "lat": 51.4438358,
          "lon": -0.4048893
        },
        {
          "lat": 51.4437445,
          "lon": -0.4050103
        },
        {
          "lat": 51.44392,
          "lon": -0.4052975
        },
        {
          "lat": 51.4439427,
          "lon": -0.4053346
        }
      ],
      "tags": {
        "addr:city": "Feltham",
        "addr:housename": "Leisure West",
        "addr:postcode": "TW13 7EF",
        "addr:street": "Browells Lane",
        "alt_name": "Cineworld Feltham",
        "amenity": "cinema",
        "brand": "Cineworld",
        "brand:wikidata": "Q5120901",
        "brand:wikipedia": "en:Cineworld",
        "building": "cinema",
        "fhrs:id": "491239",
        "fhrs:local_authority_id": "9177",
        "name": "Cineworld",
        "toilets:wheelchair": "yes",
        "website": "https://www.cineworld.co.uk/cinemas/london-feltham/023",
        "wheelchair": "yes",
        "wikidata": "Q41537376"
      }
    },
    {
      "type": "way",
      "id": 23081724,
      "bounds": {
        "minlat": 51.4319956,
        "minlon": -0.1288956,
        "maxlat": 51.4324074,
        "maxlon": -0.1278387
      },
      "nodes": [249138878, 249138879, 249138880, 1887555588, 249138878],
      "geometry": [
        {
          "lat": 51.4322877,
          "lon": -0.1278387
        },
        {
          "lat": 51.4319956,
          "lon": -0.1279283
        },
        {
          "lat": 51.4321048,
          "lon": -0.1288956
        },
        {
          "lat": 51.4324074,
          "lon": -0.128787
        },
        {
          "lat": 51.4322877,
          "lon": -0.1278387
        }
      ],
      "tags": {
        "addr:city": "London",
        "addr:housenumber": "47-49",
        "addr:postcode": "SW16 1PW",
        "addr:street": "Streatham High Road",
        "addr:suburb": "Streatham",
        "amenity": "cinema",
        "brand": "Odeon",
        "brand:wikidata": "Q6127470",
        "building": "yes",
        "check_date": "2024-07-30",
        "contact:website": "https://www.odeon.co.uk/cinemas/streatham/",
        "fhrs:authority": "Lambeth",
        "fhrs:id": "484497",
        "fhrs:inspectiondate": "2012-03-17",
        "fhrs:rating": "5",
        "name": "Streatham Odeon",
        "screen": "8",
        "toilets:wheelchair": "yes",
        "wheelchair": "limited"
      }
    },
    {
      "type": "way",
      "id": 30049479,
      "bounds": {
        "minlat": 51.5583808,
        "minlon": -0.1219546,
        "maxlat": 51.5589434,
        "maxlon": -0.1208363
      },
      "nodes": [
        330957983, 2646582318, 2646582325, 2646582324, 330957985, 2646582322,
        2646582319, 330957986, 330957988, 2646582320, 2646582323, 330957990,
        2646582317, 2646582316, 330957991, 2646582321, 330957993, 330957995,
        10129230355, 330957983
      ],
      "geometry": [
        {
          "lat": 51.5589434,
          "lon": -0.1215094
        },
        {
          "lat": 51.5585905,
          "lon": -0.120964
        },
        {
          "lat": 51.5585917,
          "lon": -0.1209308
        },
        {
          "lat": 51.5585802,
          "lon": -0.1209022
        },
        {
          "lat": 51.5585497,
          "lon": -0.1208659
        },
        {
          "lat": 51.558501,
          "lon": -0.120838
        },
        {
          "lat": 51.5584629,
          "lon": -0.1208363
        },
        {
          "lat": 51.5584248,
          "lon": -0.1208574
        },
        {
          "lat": 51.5584127,
          "lon": -0.1208712
        },
        {
          "lat": 51.5584013,
          "lon": -0.1208885
        },
        {
          "lat": 51.5583979,
          "lon": -0.1209059
        },
        {
          "lat": 51.5583808,
          "lon": -0.121157
        },
        {
          "lat": 51.5583852,
          "lon": -0.1211714
        },
        {
          "lat": 51.558393,
          "lon": -0.1211785
        },
        {
          "lat": 51.5583896,
          "lon": -0.1212484
        },
        {
          "lat": 51.5583985,
          "lon": -0.1212522
        },
        {
          "lat": 51.5583865,
          "lon": -0.1214986
        },
        {
          "lat": 51.5586933,
          "lon": -0.1219546
        },
        {
          "lat": 51.5589007,
          "lon": -0.1215854
        },
        {
          "lat": 51.5589434,
          "lon": -0.1215094
        }
      ],
      "tags": {
        "addr:city": "London",
        "addr:housenumber": "419-427",
        "addr:postcode": "N7 6LJ",
        "addr:street": "Holloway Road",
        "amenity": "cinema",
        "brand": "Odeon",
        "brand:wikidata": "Q6127470",
        "building": "yes",
        "contact:website": "https://www.odeon.co.uk/cinemas/holloway/",
        "description": "State-of-the-art chain cinema for blockbusters in 2-D or 3-D format, plus family and student deals.",
        "fhrs:id": "415983",
        "name": "Odeon Holloway",
        "operator": "Odeon",
        "wikidata": "Q26664794"
      }
    },
    {
      "type": "way",
      "id": 31305418,
      "bounds": {
        "minlat": 51.5367654,
        "minlon": -0.1038675,
        "maxlat": 51.536941,
        "maxlon": -0.1034621
      },
      "nodes": [348323465, 348323467, 348323468, 348323471, 348323465],
      "geometry": [
        {
          "lat": 51.5368778,
          "lon": -0.1034621
        },
        {
          "lat": 51.5367654,
          "lon": -0.1035141
        },
        {
          "lat": 51.5368286,
          "lon": -0.1038675
        },
        {
          "lat": 51.536941,
          "lon": -0.1038155
        },
        {
          "lat": 51.5368778,
          "lon": -0.1034621
        }
      ],
      "tags": {
        "addr:city": "London",
        "addr:country": "GB",
        "addr:housenumber": "83",
        "addr:postcode": "N1 0NP",
        "addr:street": "Upper Street",
        "amenity": "cinema",
        "brand": "Everyman Cinemas",
        "brand:wikidata": "Q5417852",
        "building": "yes",
        "building:colour": "white",
        "building:levels": "1",
        "building:material": "plaster",
        "contact:website": "https://www.everymancinema.com/screen-on-the-green",
        "name": "Screen on the Green",
        "old_name": "The Empress Picture Theatre;The Rex",
        "operator": "Everyman Media Group PLC",
        "roof:colour": "grey",
        "roof:shape": "gabled",
        "screen": "1",
        "wheelchair": "no",
        "wheelchair:description": "Steps at entrance",
        "wikidata": "Q7762705",
        "wikipedia": "en:The Screen On The Green"
      }
    },
    {
      "type": "way",
      "id": 38153961,
      "bounds": {
        "minlat": 51.5965243,
        "minlon": -0.1092484,
        "maxlat": 51.5972359,
        "maxlon": -0.1080521
      },
      "nodes": [
        449110100, 13051354091, 6284685147, 13078574249, 449110105, 12981420423,
        449110107, 449110108, 11997971162, 7644750338, 449110110, 449110115,
        2339273450, 2339273451, 449110121, 459786436, 2339273454, 2339273452,
        449110126, 11997971159, 449110131, 449110133, 12981420417, 11997971160,
        11997971161, 7644750323, 11997977183, 449110145, 11997977184, 449110152,
        12421720122, 2339273447, 449110153, 2339273446, 449110154, 7644750326,
        449110156, 7644750327, 449110157, 7644750328, 7644750329, 7644750330,
        7644750331, 7644750332, 7644750333, 7644750334, 7644750335, 7644750336,
        7644750337, 6284685148, 11997971165, 11997971164, 449110100
      ],
      "geometry": [
        {
          "lat": 51.5965243,
          "lon": -0.1090038
        },
        {
          "lat": 51.5966194,
          "lon": -0.1090441
        },
        {
          "lat": 51.5966645,
          "lon": -0.1090632
        },
        {
          "lat": 51.5967372,
          "lon": -0.1090936
        },
        {
          "lat": 51.5967661,
          "lon": -0.1091057
        },
        {
          "lat": 51.5968041,
          "lon": -0.1091214
        },
        {
          "lat": 51.5968223,
          "lon": -0.1091289
        },
        {
          "lat": 51.5968895,
          "lon": -0.109128
        },
        {
          "lat": 51.5969265,
          "lon": -0.1091237
        },
        {
          "lat": 51.5969597,
          "lon": -0.109113
        },
        {
          "lat": 51.5969974,
          "lon": -0.109092
        },
        {
          "lat": 51.5970237,
          "lon": -0.1091635
        },
        {
          "lat": 51.5970374,
          "lon": -0.1091904
        },
        {
          "lat": 51.5970517,
          "lon": -0.1092132
        },
        {
          "lat": 51.5970694,
          "lon": -0.1092308
        },
        {
          "lat": 51.5971121,
          "lon": -0.1092484
        },
        {
          "lat": 51.5971253,
          "lon": -0.1091714
        },
        {
          "lat": 51.5971253,
          "lon": -0.1091312
        },
        {
          "lat": 51.5971214,
          "lon": -0.1091011
        },
        {
          "lat": 51.5971105,
          "lon": -0.1090529
        },
        {
          "lat": 51.5970997,
          "lon": -0.1090058
        },
        {
          "lat": 51.5971206,
          "lon": -0.1089762
        },
        {
          "lat": 51.5971338,
          "lon": -0.1089541
        },
        {
          "lat": 51.5971409,
          "lon": -0.1089387
        },
        {
          "lat": 51.5971461,
          "lon": -0.1089265
        },
        {
          "lat": 51.5971642,
          "lon": -0.1089344
        },
        {
          "lat": 51.5972359,
          "lon": -0.1085139
        },
        {
          "lat": 51.5972322,
          "lon": -0.108469
        },
        {
          "lat": 51.5972208,
          "lon": -0.1084312
        },
        {
          "lat": 51.5971998,
          "lon": -0.1083924
        },
        {
          "lat": 51.5969323,
          "lon": -0.1082734
        },
        {
          "lat": 51.5968226,
          "lon": -0.1082258
        },
        {
          "lat": 51.5968247,
          "lon": -0.1081645
        },
        {
          "lat": 51.5968137,
          "lon": -0.1081254
        },
        {
          "lat": 51.5967983,
          "lon": -0.1080896
        },
        {
          "lat": 51.5967815,
          "lon": -0.1080723
        },
        {
          "lat": 51.5967626,
          "lon": -0.1080613
        },
        {
          "lat": 51.5967439,
          "lon": -0.1080521
        },
        {
          "lat": 51.5967249,
          "lon": -0.1080537
        },
        {
          "lat": 51.5967087,
          "lon": -0.1080634
        },
        {
          "lat": 51.5966899,
          "lon": -0.1080767
        },
        {
          "lat": 51.5966756,
          "lon": -0.108104
        },
        {
          "lat": 51.5966697,
          "lon": -0.1081289
        },
        {
          "lat": 51.5966649,
          "lon": -0.1081598
        },
        {
          "lat": 51.5966648,
          "lon": -0.1081842
        },
        {
          "lat": 51.5966659,
          "lon": -0.1082103
        },
        {
          "lat": 51.5966675,
          "lon": -0.1082292
        },
        {
          "lat": 51.5966115,
          "lon": -0.1085262
        },
        {
          "lat": 51.5965984,
          "lon": -0.1085199
        },
        {
          "lat": 51.596574,
          "lon": -0.1086418
        },
        {
          "lat": 51.5965431,
          "lon": -0.1088168
        },
        {
          "lat": 51.5965563,
          "lon": -0.1088229
        },
        {
          "lat": 51.5965243,
          "lon": -0.1090038
        }
      ],
      "tags": {
        "addr:city": "London",
        "addr:postcode": "N22 6EJ",
        "addr:street": "High Road",
        "amenity": "cinema",
        "brand": "Vue",
        "brand:wikidata": "Q2535134",
        "building": "cinema",
        "name": "Hollywood Green",
        "operator": "Vue"
      }
    },
    {
      "type": "way",
      "id": 67706805,
      "bounds": {
        "minlat": 51.5323778,
        "minlon": 0.1341898,
        "maxlat": 51.5329447,
        "maxlon": 0.1356438
      },
      "nodes": [
        817649806, 12136342306, 12136342307, 12136342308, 12136342309,
        9090302467, 9090302466, 817649807, 12136298492, 12136298493,
        12136298494, 12136298495, 12136298497, 12136298498, 12136298499,
        12136298496, 817649810, 12136298500, 12136342301, 817649811,
        12136342302, 12136342304, 12136342303, 12136342305, 817649806
      ],
      "geometry": [
        {
          "lat": 51.5329447,
          "lon": 0.1348144
        },
        {
          "lat": 51.5329074,
          "lon": 0.1348033
        },
        {
          "lat": 51.5329249,
          "lon": 0.1346508
        },
        {
          "lat": 51.5328976,
          "lon": 0.1346426
        },
        {
          "lat": 51.5329131,
          "lon": 0.1345075
        },
        {
          "lat": 51.5326759,
          "lon": 0.134437
        },
        {
          "lat": 51.5326981,
          "lon": 0.1342444
        },
        {
          "lat": 51.5325141,
          "lon": 0.1341898
        },
        {
          "lat": 51.5324983,
          "lon": 0.1343281
        },
        {
          "lat": 51.5325239,
          "lon": 0.1343357
        },
        {
          "lat": 51.5325121,
          "lon": 0.134438
        },
        {
          "lat": 51.5324937,
          "lon": 0.1344326
        },
        {
          "lat": 51.5324451,
          "lon": 0.1348556
        },
        {
          "lat": 51.5324253,
          "lon": 0.1348497
        },
        {
          "lat": 51.5324023,
          "lon": 0.1350496
        },
        {
          "lat": 51.5324255,
          "lon": 0.1350565
        },
        {
          "lat": 51.5323778,
          "lon": 0.1354719
        },
        {
          "lat": 51.5325523,
          "lon": 0.1355237
        },
        {
          "lat": 51.5325465,
          "lon": 0.1355737
        },
        {
          "lat": 51.5327826,
          "lon": 0.1356438
        },
        {
          "lat": 51.5328008,
          "lon": 0.135485
        },
        {
          "lat": 51.5328315,
          "lon": 0.1354941
        },
        {
          "lat": 51.5328482,
          "lon": 0.1353486
        },
        {
          "lat": 51.5328821,
          "lon": 0.1353587
        },
        {
          "lat": 51.5329447,
          "lon": 0.1348144
        }
      ],
      "tags": {
        "addr:city": "Dagenham",
        "addr:postcode": "RM9 6UQ",
        "addr:street": "Cook Road",
        "amenity": "cinema",
        "brand": "Vue",
        "brand:wikidata": "Q2535134",
        "building": "yes",
        "fhrs:id": "110217",
        "name": "Vue Dagenham",
        "website": "https://www.myvue.com/cinema/dagenham"
      }
    },
    {
      "type": "way",
      "id": 71380122,
      "bounds": {
        "minlat": 51.646115,
        "minlon": -0.1882658,
        "maxlat": 51.6465836,
        "maxlon": -0.1875278
      },
      "nodes": [
        849394352, 4130111424, 849394168, 849394586, 4130111423, 849394916,
        849394352
      ],
      "geometry": [
        {
          "lat": 51.6464155,
          "lon": -0.1875278
        },
        {
          "lat": 51.6462599,
          "lon": -0.1877551
        },
        {
          "lat": 51.646115,
          "lon": -0.1879669
        },
        {
          "lat": 51.6462831,
          "lon": -0.1882658
        },
        {
          "lat": 51.6463142,
          "lon": -0.1882204
        },
        {
          "lat": 51.6465836,
          "lon": -0.1878266
        },
        {
          "lat": 51.6464155,
          "lon": -0.1875278
        }
      ],
      "tags": {
        "addr:city": "Barnet",
        "addr:postcode": "EN5 1AB",
        "addr:street": "Great North Road",
        "amenity": "cinema",
        "building": "yes",
        "name": "Barnet Everyman Cinema",
        "roof:shape": "half-hipped",
        "website": "https://www.everymancinema.com/venues/barnet/whats-on/",
        "wikidata": "Q20876247"
      }
    },
    {
      "type": "way",
      "id": 77002327,
      "bounds": {
        "minlat": 51.5063102,
        "minlon": -0.1481818,
        "maxlat": 51.5066169,
        "maxlon": -0.1478098
      },
      "nodes": [
        906743009, 3485171843, 906742992, 3485171845, 906743005, 3485171846,
        3485171844, 3485171825, 3485171807, 3485171803, 906743011, 3485171245,
        3485171271, 3485171286, 3485167588, 3485171811, 3485171834, 3485171840,
        906743009
      ],
      "geometry": [
        {
          "lat": 51.50658,
          "lon": -0.1481818
        },
        {
          "lat": 51.5065835,
          "lon": -0.1481553
        },
        {
          "lat": 51.5065891,
          "lon": -0.1481128
        },
        {
          "lat": 51.5065982,
          "lon": -0.1480441
        },
        {
          "lat": 51.5066169,
          "lon": -0.1479029
        },
        {
          "lat": 51.5066059,
          "lon": -0.1478991
        },
        {
          "lat": 51.5065949,
          "lon": -0.1478953
        },
        {
          "lat": 51.5065312,
          "lon": -0.1478731
        },
        {
          "lat": 51.5064814,
          "lon": -0.1478558
        },
        {
          "lat": 51.5064672,
          "lon": -0.1478509
        },
        {
          "lat": 51.506348,
          "lon": -0.1478098
        },
        {
          "lat": 51.5063102,
          "lon": -0.1480936
        },
        {
          "lat": 51.5063854,
          "lon": -0.1481159
        },
        {
          "lat": 51.5064161,
          "lon": -0.1481253
        },
        {
          "lat": 51.5064276,
          "lon": -0.1481291
        },
        {
          "lat": 51.5064889,
          "lon": -0.1481503
        },
        {
          "lat": 51.5065574,
          "lon": -0.148174
        },
        {
          "lat": 51.5065684,
          "lon": -0.1481779
        },
        {
          "lat": 51.50658,
          "lon": -0.1481818
        }
      ],
      "tags": {
        "addr:city": "London",
        "addr:housenumber": "38",
        "addr:postcode": "W1J 7TY",
        "addr:street": "Curzon Street",
        "amenity": "cinema",
        "brand": "Curzon",
        "brand:wikidata": "Q16953326",
        "building": "yes",
        "contact:phone": "+44 871 7033989",
        "name": "Curzon Mayfair",
        "wikidata": "Q27083540"
      }
    },
    {
      "type": "way",
      "id": 78230879,
      "bounds": {
        "minlat": 51.4706167,
        "minlon": -0.0684848,
        "maxlat": 51.4710794,
        "maxlon": -0.0673299
      },
      "nodes": [
        918758055, 918757801, 918757324, 918757054, 918758641, 918757495,
        918758331, 918756729, 918756826, 918756604, 11191602256, 918758055
      ],
      "geometry": [
        {
          "lat": 51.4709758,
          "lon": -0.0676632
        },
        {
          "lat": 51.4710496,
          "lon": -0.0676797
        },
        {
          "lat": 51.4710794,
          "lon": -0.0674253
        },
        {
          "lat": 51.4710026,
          "lon": -0.067403
        },
        {
          "lat": 51.4707003,
          "lon": -0.0673299
        },
        {
          "lat": 51.4706167,
          "lon": -0.0683046
        },
        {
          "lat": 51.4707377,
          "lon": -0.0683374
        },
        {
          "lat": 51.4707259,
          "lon": -0.0684489
        },
        {
          "lat": 51.4708274,
          "lon": -0.068472
        },
        {
          "lat": 51.4708905,
          "lon": -0.0684848
        },
        {
          "lat": 51.4709047,
          "lon": -0.0683099
        },
        {
          "lat": 51.4709758,
          "lon": -0.0676632
        }
      ],
      "tags": {
        "addr:city": "London",
        "addr:housenumber": "95a",
        "addr:postcode": "SE15 4ST",
        "addr:street": "Rye Lane",
        "amenity": "cinema",
        "building": "yes",
        "fhrs:id": "421379",
        "name": "Peckhamplex",
        "source": "Bing;OS StreetView",
        "source:addr": "FHRS Open Data",
        "website": "http://www.peckhamplex.com/",
        "wikidata": "Q42046612"
      }
    },
    {
      "type": "way",
      "id": 91030820,
      "bounds": {
        "minlat": 51.4582521,
        "minlon": -0.3055406,
        "maxlat": 51.4587768,
        "maxlon": -0.3048318
      },
      "nodes": [
        1057110722, 1057109800, 1057109645, 1057110480, 1057110415, 1057109661,
        1057109210, 7419136377, 1057109371, 1057109706, 1057109377, 1057110483,
        1057110455, 1057110111, 1057109724, 1057110397, 1057110121, 1057110072,
        1057109412, 4317591780, 1057110722
      ],
      "geometry": [
        {
          "lat": 51.4586814,
          "lon": -0.3055406
        },
        {
          "lat": 51.4586874,
          "lon": -0.3055183
        },
        {
          "lat": 51.4586657,
          "lon": -0.3055022
        },
        {
          "lat": 51.4586791,
          "lon": -0.3054647
        },
        {
          "lat": 51.4586732,
          "lon": -0.3054593
        },
        {
          "lat": 51.4586891,
          "lon": -0.3054111
        },
        {
          "lat": 51.458669,
          "lon": -0.305399
        },
        {
          "lat": 51.4586823,
          "lon": -0.3053559
        },
        {
          "lat": 51.4587768,
          "lon": -0.3050469
        },
        {
          "lat": 51.4584877,
          "lon": -0.3048318
        },
        {
          "lat": 51.4584635,
          "lon": -0.30488
        },
        {
          "lat": 51.4584426,
          "lon": -0.3049309
        },
        {
          "lat": 51.4584259,
          "lon": -0.3049792
        },
        {
          "lat": 51.45841,
          "lon": -0.3050382
        },
        {
          "lat": 51.4584058,
          "lon": -0.3050597
        },
        {
          "lat": 51.4583782,
          "lon": -0.3050409
        },
        {
          "lat": 51.4582521,
          "lon": -0.3053359
        },
        {
          "lat": 51.4582612,
          "lon": -0.3053722
        },
        {
          "lat": 51.4583693,
          "lon": -0.3054617
        },
        {
          "lat": 51.4584105,
          "lon": -0.3053271
        },
        {
          "lat": 51.4586814,
          "lon": -0.3055406
        }
      ],
      "tags": {
        "addr:city": "Richmond upon Thames",
        "addr:housenumber": "72-74",
        "addr:postcode": "TW9 1TW",
        "addr:street": "Hill Street",
        "air_conditioning": "yes",
        "amenity": "cinema",
        "brand": "Odeon",
        "brand:wikidata": "Q6127470",
        "brand:wikipedia": "en:Odeon Cinemas",
        "building": "yes",
        "building:levels": "2",
        "check_date": "2024-07-06",
        "contact:website": "https://www.odeon.co.uk/cinemas/richmond/",
        "fhrs:id": "1574306",
        "internet_access": "no",
        "name": "Odeon Cinema",
        "note": "Screens 1 to 3 of Odeon Richmond.",
        "operator": "Odeon",
        "payment:american_express": "yes",
        "payment:cash": "yes",
        "payment:mastercard": "yes",
        "payment:membership_card": "yes",
        "payment:visa": "yes",
        "payment:visa_debit": "yes",
        "source:addr": "FHRS Open Data",
        "source:addr:postcode": "FHRS",
        "toilets": "yes",
        "toilets:access": "customers",
        "toilets:handwashing": "yes",
        "wheelchair": "yes",
        "wikidata": "Q27082557"
      }
    },
    {
      "type": "way",
      "id": 91275364,
      "bounds": {
        "minlat": 51.5943771,
        "minlon": 0.0226044,
        "maxlat": 51.5946173,
        "maxlon": 0.023395
      },
      "nodes": [
        1059665665, 1059665671, 1059666183, 1059666215, 1059666180, 1838135385,
        1059665449, 1059666019, 1059666173, 2866881754, 2866881752, 1059665665
      ],
      "geometry": [
        {
          "lat": 51.5945919,
          "lon": 0.0233702
        },
        {
          "lat": 51.5944071,
          "lon": 0.023395
        },
        {
          "lat": 51.5943771,
          "lon": 0.0228678
        },
        {
          "lat": 51.5943922,
          "lon": 0.0228142
        },
        {
          "lat": 51.5943824,
          "lon": 0.0226325
        },
        {
          "lat": 51.5944712,
          "lon": 0.0226158
        },
        {
          "lat": 51.5945658,
          "lon": 0.0226044
        },
        {
          "lat": 51.5945756,
          "lon": 0.022782
        },
        {
          "lat": 51.5946021,
          "lon": 0.0228705
        },
        {
          "lat": 51.5946173,
          "lon": 0.0231894
        },
        {
          "lat": 51.5945894,
          "lon": 0.0233021
        },
        {
          "lat": 51.5945919,
          "lon": 0.0233702
        }
      ],
      "tags": {
        "amenity": "cinema",
        "brand": "Odeon",
        "brand:wikidata": "Q6127470",
        "building": "yes",
        "contact:website": "https://www.odeon.co.uk/cinemas/south-woodford/",
        "name": "Odeon South Woodford",
        "source": "Yahoo",
        "wikidata": "Q42203392"
      }
    },
    {
      "type": "way",
      "id": 95223664,
      "bounds": {
        "minlat": 51.4563586,
        "minlon": -0.076536,
        "maxlat": 51.4565856,
        "maxlon": -0.0760936
      },
      "nodes": [
        1104598700, 1104598711, 1104598826, 1104598585, 1104598763, 1104599075,
        1104598700
      ],
      "geometry": [
        {
          "lat": 51.4565084,
          "lon": -0.0760936
        },
        {
          "lat": 51.4563586,
          "lon": -0.0761729
        },
        {
          "lat": 51.4563796,
          "lon": -0.0762754
        },
        {
          "lat": 51.4564037,
          "lon": -0.0762626
        },
        {
          "lat": 51.4564598,
          "lon": -0.076536
        },
        {
          "lat": 51.4565856,
          "lon": -0.0764695
        },
        {
          "lat": 51.4565084,
          "lon": -0.0760936
        }
      ],
      "tags": {
        "addr:city": "London",
        "addr:housenumber": "116a",
        "addr:postcode": "SE22 8HD",
        "addr:street": "Lordship Lane",
        "amenity": "cinema",
        "brand": "Picturehouse Cinemas",
        "brand:wikidata": "Q7191215",
        "building": "yes",
        "fhrs:id": "797904",
        "name": "East Dulwich Picturehouse",
        "source": "Bing;OS StreetView",
        "wikidata": "Q42158540"
      }
    },
    {
      "type": "way",
      "id": 97237929,
      "bounds": {
        "minlat": 51.5160604,
        "minlon": -0.1216046,
        "maxlat": 51.5163994,
        "maxlon": -0.1211138
      },
      "nodes": [
        1126375757, 9140867346, 9140867347, 1126375764, 1126375773, 1126375778,
        1126375819, 1126375822, 1126375828, 1126375833, 1126375757
      ],
      "geometry": [
        {
          "lat": 51.5163994,
          "lon": -0.1212834
        },
        {
          "lat": 51.5162785,
          "lon": -0.1211296
        },
        {
          "lat": 51.5162754,
          "lon": -0.1211333
        },
        {
          "lat": 51.5162597,
          "lon": -0.1211138
        },
        {
          "lat": 51.5162105,
          "lon": -0.1211293
        },
        {
          "lat": 51.5160604,
          "lon": -0.1213992
        },
        {
          "lat": 51.5161302,
          "lon": -0.1215102
        },
        {
          "lat": 51.5161414,
          "lon": -0.1214959
        },
        {
          "lat": 51.516209,
          "lon": -0.1216046
        },
        {
          "lat": 51.5163242,
          "lon": -0.1214183
        },
        {
          "lat": 51.5163994,
          "lon": -0.1212834
        }
      ],
      "tags": {
        "addr:city": "London",
        "addr:housenumber": "39-41",
        "addr:postcode": "WC2B 5PQ",
        "addr:street": "Parker Street",
        "amenity": "cinema",
        "building": "yes",
        "building:levels": "4",
        "building:material": "brick",
        "check_date": "2024-09-20",
        "name": "The Garden Cinema",
        "roof:colour": "lightgrey",
        "roof:levels": "1",
        "source": "Bing"
      }
    },
    {
      "type": "way",
      "id": 97398691,
      "bounds": {
        "minlat": 51.4884664,
        "minlon": -0.2283602,
        "maxlat": 51.4891177,
        "maxlon": -0.2272914
      },
      "nodes": [
        1128035665, 8619143964, 8619143963, 1128035667, 9418385171, 9418385172,
        11483291110, 8619144004, 8619143981, 8619143982, 1128035668, 1128035670,
        8619143978, 8619143977, 11435284027, 11435284026, 11435284030,
        8619143969, 8619143968, 8619143967, 8619143966, 8619143965, 8619144002,
        11435284031, 1128035665
      ],
      "geometry": [
        {
          "lat": 51.4884664,
          "lon": -0.2274525
        },
        {
          "lat": 51.4885284,
          "lon": -0.2273046
        },
        {
          "lat": 51.4885405,
          "lon": -0.2273177
        },
        {
          "lat": 51.4885516,
          "lon": -0.2272914
        },
        {
          "lat": 51.4886709,
          "lon": -0.2274207
        },
        {
          "lat": 51.4886557,
          "lon": -0.2274546
        },
        {
          "lat": 51.4886847,
          "lon": -0.2274886
        },
        {
          "lat": 51.4887554,
          "lon": -0.2275715
        },
        {
          "lat": 51.4888072,
          "lon": -0.2276285
        },
        {
          "lat": 51.4888548,
          "lon": -0.2276746
        },
        {
          "lat": 51.4891177,
          "lon": -0.2279596
        },
        {
          "lat": 51.4890424,
          "lon": -0.2281388
        },
        {
          "lat": 51.4890173,
          "lon": -0.2281116
        },
        {
          "lat": 51.4889128,
          "lon": -0.2283602
        },
        {
          "lat": 51.4888483,
          "lon": -0.2282903
        },
        {
          "lat": 51.4887859,
          "lon": -0.2282226
        },
        {
          "lat": 51.4888236,
          "lon": -0.2281331
        },
        {
          "lat": 51.4888928,
          "lon": -0.2279683
        },
        {
          "lat": 51.4888,
          "lon": -0.2278676
        },
        {
          "lat": 51.4887804,
          "lon": -0.2279141
        },
        {
          "lat": 51.4886341,
          "lon": -0.2277555
        },
        {
          "lat": 51.4886534,
          "lon": -0.2277097
        },
        {
          "lat": 51.4885799,
          "lon": -0.22763
        },
        {
          "lat": 51.488589,
          "lon": -0.2276002
        },
        {
          "lat": 51.4884664,
          "lon": -0.2274525
        }
      ],
      "tags": {
        "amenity": "cinema",
        "building:levels": "6",
        "building:part": "yes",
        "name": "Riverside Studios"
      }
    },
    {
      "type": "way",
      "id": 123444154,
      "bounds": {
        "minlat": 51.5046195,
        "minlon": -0.1139524,
        "maxlat": 51.5050226,
        "maxlon": -0.1133048
      },
      "nodes": [
        1376582829, 1376582816, 1376582856, 1376582821, 1376582832, 1376582881,
        1376582841, 1376582813, 1376582885, 1376582843, 1376582814, 1376582846,
        1376582862, 1376582827, 1376582871, 1376582835, 1376582863, 1376582828,
        1376582877, 1376582836, 1376582829
      ],
      "geometry": [
        {
          "lat": 51.5050111,
          "lon": -0.1137368
        },
        {
          "lat": 51.5050226,
          "lon": -0.1136369
        },
        {
          "lat": 51.5050143,
          "lon": -0.1135362
        },
        {
          "lat": 51.5049869,
          "lon": -0.1134445
        },
        {
          "lat": 51.5049432,
          "lon": -0.113371
        },
        {
          "lat": 51.5048875,
          "lon": -0.1133229
        },
        {
          "lat": 51.5048253,
          "lon": -0.1133048
        },
        {
          "lat": 51.5047626,
          "lon": -0.1133187
        },
        {
          "lat": 51.5047057,
          "lon": -0.113363
        },
        {
          "lat": 51.5046602,
          "lon": -0.1134335
        },
        {
          "lat": 51.5046305,
          "lon": -0.1135232
        },
        {
          "lat": 51.5046195,
          "lon": -0.1136227
        },
        {
          "lat": 51.5046282,
          "lon": -0.1137228
        },
        {
          "lat": 51.5046556,
          "lon": -0.1138137
        },
        {
          "lat": 51.5046992,
          "lon": -0.1138865
        },
        {
          "lat": 51.5047546,
          "lon": -0.1139343
        },
        {
          "lat": 51.5048165,
          "lon": -0.1139524
        },
        {
          "lat": 51.5048788,
          "lon": -0.1139389
        },
        {
          "lat": 51.5049355,
          "lon": -0.1138952
        },
        {
          "lat": 51.5049811,
          "lon": -0.1138256
        },
        {
          "lat": 51.5050111,
          "lon": -0.1137368
        }
      ],
      "tags": {
        "addr:city": "London",
        "addr:country": "GB",
        "addr:housenumber": "1",
        "addr:postcode": "SE1 8XR",
        "addr:street": "Charlie Chaplin Walk",
        "amenity": "cinema",
        "building": "yes",
        "building:material": "glass",
        "check_date": "2025-06-25",
        "cinema:3D": "yes",
        "cinema:IMAX": "yes",
        "contact:website": "http://www.bfi.org.uk/bfi-imax",
        "height": "25",
        "name": "BFI IMAX",
        "operator": "British Film Institute",
        "operator:wikidata": "Q260528",
        "payment:cash": "no",
        "payment:contactless": "yes",
        "payment:credit_cards": "yes",
        "payment:debit_cards": "yes",
        "roof:height": "3",
        "roof:material": "glass",
        "roof:shape": "dome",
        "screen": "1",
        "tourism": "attraction",
        "wheelchair": "yes",
        "wikidata": "Q6670485",
        "wikipedia": "en:BFI IMAX"
      }
    },
    {
      "type": "way",
      "id": 123701976,
      "bounds": {
        "minlat": 51.5423562,
        "minlon": -0.1749537,
        "maxlat": 51.5427142,
        "maxlon": -0.1741967
      },
      "nodes": [
        1378606984, 1378607033, 1378607102, 1378606952, 1378607000, 1378607058,
        1378607074, 1378607023, 1378607121, 1378606967, 1378607065, 1378606991,
        1378607104, 1378607007, 1378606956, 1378607112, 1378607037, 1378606953,
        1378606984
      ],
      "geometry": [
        {
          "lat": 51.5426853,
          "lon": -0.1748904
        },
        {
          "lat": 51.5426539,
          "lon": -0.1745109
        },
        {
          "lat": 51.542688,
          "lon": -0.1744961
        },
        {
          "lat": 51.5426998,
          "lon": -0.1744582
        },
        {
          "lat": 51.5426867,
          "lon": -0.1744518
        },
        {
          "lat": 51.5427142,
          "lon": -0.1743548
        },
        {
          "lat": 51.5426555,
          "lon": -0.1742949
        },
        {
          "lat": 51.5426236,
          "lon": -0.1742623
        },
        {
          "lat": 51.5425595,
          "lon": -0.1741967
        },
        {
          "lat": 51.5424238,
          "lon": -0.1742195
        },
        {
          "lat": 51.5424316,
          "lon": -0.1743502
        },
        {
          "lat": 51.5424008,
          "lon": -0.1743569
        },
        {
          "lat": 51.542389,
          "lon": -0.1745341
        },
        {
          "lat": 51.5424086,
          "lon": -0.1747871
        },
        {
          "lat": 51.5423562,
          "lon": -0.1747997
        },
        {
          "lat": 51.5423627,
          "lon": -0.1749073
        },
        {
          "lat": 51.5424191,
          "lon": -0.1748989
        },
        {
          "lat": 51.5424231,
          "lon": -0.1749537
        },
        {
          "lat": 51.5426853,
          "lon": -0.1748904
        }
      ],
      "tags": {
        "addr:housenumber": "96",
        "addr:street": "Finchley Road",
        "amenity": "cinema",
        "brand": "Odeon",
        "brand:wikidata": "Q6127470",
        "building": "yes",
        "building:levels": "2",
        "check_date": "2024-12-02",
        "contact:website": "https://www.odeon.co.uk/cinemas/swiss-cottage/",
        "name": "Odeon Swiss Cottage",
        "wheelchair": "yes",
        "wikidata": "Q42198399"
      }
    },
    {
      "type": "way",
      "id": 142371471,
      "bounds": {
        "minlat": 51.5445453,
        "minlon": -0.0552118,
        "maxlat": 51.5450838,
        "maxlon": -0.054667
      },
      "nodes": [
        57215755, 1558137279, 1558137277, 1558137273, 1558137271, 1558137272,
        1558137274, 1558137285, 1558137287, 1558137289, 1558137291, 1558137292,
        1558137299, 1558137298, 1558137301, 1558137300, 1558137302, 1558137304,
        4171814531, 9300107244, 4171814532, 9925608432, 1558137283, 57215755
      ],
      "geometry": [
        {
          "lat": 51.5445975,
          "lon": -0.0551992
        },
        {
          "lat": 51.5445851,
          "lon": -0.0552118
        },
        {
          "lat": 51.5445681,
          "lon": -0.0552108
        },
        {
          "lat": 51.5445518,
          "lon": -0.055194
        },
        {
          "lat": 51.5445453,
          "lon": -0.0551646
        },
        {
          "lat": 51.5445486,
          "lon": -0.05513
        },
        {
          "lat": 51.5445561,
          "lon": -0.0551153
        },
        {
          "lat": 51.5446137,
          "lon": -0.0546968
        },
        {
          "lat": 51.5446264,
          "lon": -0.0546974
        },
        {
          "lat": 51.5446292,
          "lon": -0.0546804
        },
        {
          "lat": 51.5446763,
          "lon": -0.0546997
        },
        {
          "lat": 51.5446809,
          "lon": -0.054667
        },
        {
          "lat": 51.5447125,
          "lon": -0.0546815
        },
        {
          "lat": 51.5447065,
          "lon": -0.0547201
        },
        {
          "lat": 51.5447312,
          "lon": -0.0547323
        },
        {
          "lat": 51.5447312,
          "lon": -0.0547123
        },
        {
          "lat": 51.5448129,
          "lon": -0.0547035
        },
        {
          "lat": 51.5448162,
          "lon": -0.054757
        },
        {
          "lat": 51.5450583,
          "lon": -0.0547253
        },
        {
          "lat": 51.5450741,
          "lon": -0.0549789
        },
        {
          "lat": 51.5450838,
          "lon": -0.0551327
        },
        {
          "lat": 51.5447959,
          "lon": -0.0551791
        },
        {
          "lat": 51.5446069,
          "lon": -0.0552096
        },
        {
          "lat": 51.5445975,
          "lon": -0.0551992
        }
      ],
      "tags": {
        "addr:city": "London",
        "addr:housenumber": "270",
        "addr:postcode": "E8 1HE",
        "addr:street": "Mare Street",
        "air_conditioning": "yes",
        "amenity": "cinema",
        "bar": "yes",
        "brand": "Picturehouse Cinemas",
        "brand:wikidata": "Q7191215",
        "brand:wikipedia": "en:Picturehouse Cinemas",
        "building": "yes",
        "building:levels": "4",
        "building:material": "sandstone",
        "changing_table": "yes",
        "check_date": "2023-11-20",
        "contact:website": "https://www.picturehouses.com/cinema/Hackney_Picturehouse",
        "diet:vegetarian": "yes",
        "fhrs:id": "470460",
        "food": "yes",
        "internet_access": "wlan",
        "internet_access:fee": "customers",
        "name": "Hackney Picturehouse",
        "opening_hours": "Mo-Su 08:00-01:00",
        "operator": "Picturehouse",
        "payment:cash": "yes",
        "payment:credit_cards": "yes",
        "payment:debit_cards": "yes",
        "roof:colour": "grey",
        "roof:levels": "1",
        "roof:shape": "hipped",
        "screen": "6",
        "source": "Bing;survey",
        "toilets": "customers",
        "toilets:wheelchair": "yes",
        "was:amenity": "music_venue",
        "was:name": "The Ocean",
        "wheelchair": "yes",
        "wheelchair:description": "https://www.picturehouses.com/cinema/info/Hackney_Picturehouse#disabled-access",
        "wikidata": "Q42118694"
      }
    },
    {
      "type": "way",
      "id": 150702283,
      "bounds": {
        "minlat": 51.5061359,
        "minlon": -0.1158895,
        "maxlat": 51.5073231,
        "maxlon": -0.1145342
      },
      "nodes": [
        1635924962, 9532225656, 9532225655, 9532225654, 9532225657, 1635924886,
        12699055577, 9532225658, 1646025010, 1635924939, 1635924960, 1635924894,
        9532225661, 9532225660, 1635925031, 1635924950, 1635925012, 1635924912,
        1635925035, 1635924965, 1635924898, 1635924901, 1635925038, 1635925045,
        1635924958, 1635924973, 12699055579, 12699055578, 12699055576,
        1635924962
      ],
      "geometry": [
        {
          "lat": 51.5072228,
          "lon": -0.1154566
        },
        {
          "lat": 51.5072471,
          "lon": -0.1153867
        },
        {
          "lat": 51.5073231,
          "lon": -0.1154536
        },
        {
          "lat": 51.5071699,
          "lon": -0.1158895
        },
        {
          "lat": 51.5070989,
          "lon": -0.1158252
        },
        {
          "lat": 51.5071142,
          "lon": -0.1157793
        },
        {
          "lat": 51.5070022,
          "lon": -0.1156786
        },
        {
          "lat": 51.5068761,
          "lon": -0.1155702
        },
        {
          "lat": 51.5068711,
          "lon": -0.1155839
        },
        {
          "lat": 51.5066972,
          "lon": -0.1154288
        },
        {
          "lat": 51.5066608,
          "lon": -0.1153985
        },
        {
          "lat": 51.5066497,
          "lon": -0.1154323
        },
        {
          "lat": 51.5065338,
          "lon": -0.1153404
        },
        {
          "lat": 51.5065196,
          "lon": -0.1153786
        },
        {
          "lat": 51.5062889,
          "lon": -0.1151751
        },
        {
          "lat": 51.5063018,
          "lon": -0.1151327
        },
        {
          "lat": 51.5062111,
          "lon": -0.1150495
        },
        {
          "lat": 51.5061972,
          "lon": -0.1149674
        },
        {
          "lat": 51.5061359,
          "lon": -0.1149062
        },
        {
          "lat": 51.5062728,
          "lon": -0.1145342
        },
        {
          "lat": 51.5065021,
          "lon": -0.1147367
        },
        {
          "lat": 51.5065135,
          "lon": -0.1147044
        },
        {
          "lat": 51.5065559,
          "lon": -0.1147403
        },
        {
          "lat": 51.5065454,
          "lon": -0.1147761
        },
        {
          "lat": 51.506773,
          "lon": -0.1149867
        },
        {
          "lat": 51.5067571,
          "lon": -0.11503
        },
        {
          "lat": 51.5069967,
          "lon": -0.1152364
        },
        {
          "lat": 51.5069921,
          "lon": -0.1152492
        },
        {
          "lat": 51.5071149,
          "lon": -0.1153595
        },
        {
          "lat": 51.5072228,
          "lon": -0.1154566
        }
      ],
      "tags": {
        "addr:city": "London",
        "addr:housenumber": "1",
        "addr:postcode": "SE1 8XR",
        "addr:street": "Charlie Chaplin Walk",
        "amenity": "cinema",
        "building": "yes",
        "check_date": "2025-07-02",
        "height": "4",
        "name": "BFI Southbank",
        "old_name": "National Film Theatre",
        "operator": "British Film Institute",
        "payment:cash": "yes",
        "payment:credit_cards": "yes",
        "payment:debit_cards": "yes",
        "phone": "+44 20 7928 3232",
        "screen": "4",
        "website": "https://www.bfi.org.uk/bfi-southbank",
        "wheelchair": "yes",
        "wikidata": "Q683076",
        "wikipedia": "en:BFI Southbank"
      }
    },
    {
      "type": "way",
      "id": 160661213,
      "bounds": {
        "minlat": 51.4792278,
        "minlon": -0.0099798,
        "maxlat": 51.4796642,
        "maxlon": -0.0093985
      },
      "nodes": [
        1727000377, 1727000368, 1727000365, 1727000367, 1727000369, 243707544,
        9402591791, 9402591793, 9402591792, 1727000371, 9402591784, 9402591785,
        1727000376, 9402591790, 9402591789, 9402591788, 9402591787, 9402591786,
        1727000379, 1727000380, 1727000381, 9402591795, 9402591794, 1727000377
      ],
      "geometry": [
        {
          "lat": 51.4794984,
          "lon": -0.0094432
        },
        {
          "lat": 51.4792964,
          "lon": -0.0097627
        },
        {
          "lat": 51.4792278,
          "lon": -0.0098712
        },
        {
          "lat": 51.4792945,
          "lon": -0.0099798
        },
        {
          "lat": 51.4793631,
          "lon": -0.0098713
        },
        {
          "lat": 51.4793824,
          "lon": -0.0099029
        },
        {
          "lat": 51.4794036,
          "lon": -0.0098913
        },
        {
          "lat": 51.4794239,
          "lon": -0.0098766
        },
        {
          "lat": 51.479443,
          "lon": -0.0098588
        },
        {
          "lat": 51.4794606,
          "lon": -0.009839
        },
        {
          "lat": 51.4794676,
          "lon": -0.0098287
        },
        {
          "lat": 51.4794699,
          "lon": -0.0098328
        },
        {
          "lat": 51.479486,
          "lon": -0.0098191
        },
        {
          "lat": 51.4795066,
          "lon": -0.0098007
        },
        {
          "lat": 51.4795294,
          "lon": -0.0097794
        },
        {
          "lat": 51.4795514,
          "lon": -0.0097571
        },
        {
          "lat": 51.4795738,
          "lon": -0.0097334
        },
        {
          "lat": 51.4795968,
          "lon": -0.0097078
        },
        {
          "lat": 51.4796192,
          "lon": -0.0096812
        },
        {
          "lat": 51.4796229,
          "lon": -0.0096872
        },
        {
          "lat": 51.4796642,
          "lon": -0.0096219
        },
        {
          "lat": 51.4795271,
          "lon": -0.0093985
        },
        {
          "lat": 51.4795245,
          "lon": -0.0094026
        },
        {
          "lat": 51.4794984,
          "lon": -0.0094432
        }
      ],
      "tags": {
        "addr:city": "London",
        "addr:housenumber": "180",
        "addr:postcode": "SE10 8NN",
        "addr:street": "Greenwich High Road",
        "amenity": "cinema",
        "brand": "Picturehouse Cinemas",
        "brand:wikidata": "Q7191215",
        "building": "retail",
        "check_date": "2025-08-08",
        "fhrs:id": "694370",
        "name": "Greenwich Picturehouse",
        "opening_hours": "\"whenever a film is on\"",
        "toilets:wheelchair": "yes",
        "website": "https://www.picturehouses.com/cinema/greenwich-picturehouse",
        "wheelchair": "yes",
        "wikidata": "Q42118542"
      }
    },
    {
      "type": "way",
      "id": 166292135,
      "bounds": {
        "minlat": 51.5254035,
        "minlon": -0.28178,
        "maxlat": 51.5261152,
        "maxlon": -0.2809466
      },
      "nodes": [
        267919781, 1777475796, 1777475795, 9598226854, 9598226856, 9598226855,
        1777475793, 1777475794, 1777475781, 1777475780, 1777475776, 1777475775,
        1777475786, 1777475783, 1777475791, 1777475790, 1777475797, 1777475798,
        1777475799, 1777475800, 1777475802, 1777475803, 1777475801, 267919781
      ],
      "geometry": [
        {
          "lat": 51.5260911,
          "lon": -0.2810329
        },
        {
          "lat": 51.5259155,
          "lon": -0.2810263
        },
        {
          "lat": 51.5259151,
          "lon": -0.2810582
        },
        {
          "lat": 51.5258239,
          "lon": -0.2810548
        },
        {
          "lat": 51.5257669,
          "lon": -0.2809466
        },
        {
          "lat": 51.5257016,
          "lon": -0.2810502
        },
        {
          "lat": 51.5256157,
          "lon": -0.281047
        },
        {
          "lat": 51.5256162,
          "lon": -0.2810146
        },
        {
          "lat": 51.5254462,
          "lon": -0.2810083
        },
        {
          "lat": 51.5254423,
          "lon": -0.2812793
        },
        {
          "lat": 51.525409,
          "lon": -0.281278
        },
        {
          "lat": 51.5254035,
          "lon": -0.2816577
        },
        {
          "lat": 51.5254957,
          "lon": -0.2816611
        },
        {
          "lat": 51.5254949,
          "lon": -0.2817171
        },
        {
          "lat": 51.5255875,
          "lon": -0.2817206
        },
        {
          "lat": 51.5255868,
          "lon": -0.2817676
        },
        {
          "lat": 51.5259187,
          "lon": -0.28178
        },
        {
          "lat": 51.5259195,
          "lon": -0.2817223
        },
        {
          "lat": 51.5260133,
          "lon": -0.2817258
        },
        {
          "lat": 51.526014,
          "lon": -0.281676
        },
        {
          "lat": 51.5261099,
          "lon": -0.2816796
        },
        {
          "lat": 51.5261152,
          "lon": -0.2813167
        },
        {
          "lat": 51.526087,
          "lon": -0.2813157
        },
        {
          "lat": 51.5260911,
          "lon": -0.2810329
        }
      ],
      "tags": {
        "addr:city": "London",
        "addr:housename": "ODEON Luxe Acton",
        "addr:housenumber": "Royal Leisure Park",
        "addr:postcode": "W3 0PA",
        "addr:street": "Western Avenue",
        "amenity": "cinema",
        "brand": "Odeon",
        "brand:wikidata": "Q6127470",
        "building": "yes",
        "name": "Odeon Luxe Acton",
        "phone": "+44 333 014 4501",
        "ref:GB:uprn": "12142734;12180313;12148223;12157747",
        "screen": "9",
        "source:outline": "Bing"
      }
    },
    {
      "type": "way",
      "id": 180571964,
      "bounds": {
        "minlat": 51.5103079,
        "minlon": -0.1294995,
        "maxlat": 51.5106931,
        "maxlon": -0.1287206
      },
      "nodes": [
        1909975201, 9196521327, 9196521325, 9196521356, 9196521339, 1909975193,
        1909975192, 1909975199, 4854756574, 1909975201
      ],
      "geometry": [
        {
          "lat": 51.5106931,
          "lon": -0.1287725
        },
        {
          "lat": 51.5106666,
          "lon": -0.1287674
        },
        {
          "lat": 51.5105876,
          "lon": -0.1287521
        },
        {
          "lat": 51.5104243,
          "lon": -0.1287206
        },
        {
          "lat": 51.5104131,
          "lon": -0.1288466
        },
        {
          "lat": 51.5103579,
          "lon": -0.1288377
        },
        {
          "lat": 51.5103079,
          "lon": -0.1294188
        },
        {
          "lat": 51.5106422,
          "lon": -0.1294995
        },
        {
          "lat": 51.5106714,
          "lon": -0.1290639
        },
        {
          "lat": 51.5106931,
          "lon": -0.1287725
        }
      ],
      "tags": {
        "addr:city": "London",
        "addr:housenumber": "24-26",
        "addr:postcode": "WC2H 7JY",
        "addr:street": "Leicester Square",
        "amenity": "cinema",
        "brand": "Odeon",
        "brand:wikidata": "Q6127470",
        "brand:wikipedia": "en:Odeon Cinemas",
        "building": "yes",
        "fhrs:id": "412960",
        "layer": "1",
        "name": "Odeon Luxe Leicester Square",
        "source:addr": "FHRS Open Data",
        "website": "https://www.odeon.co.uk/cinemas/london-leicester-square/",
        "wheelchair": "limited",
        "wikidata": "Q3349144",
        "wikipedia": "en:Odeon Luxe Leicester Square"
      }
    },
    {
      "type": "way",
      "id": 180594287,
      "bounds": {
        "minlat": 51.5113619,
        "minlon": -0.1303734,
        "maxlat": 51.511625,
        "maxlon": -0.1298759
      },
      "nodes": [
        9195749565, 1835298155, 9195722788, 9195722791, 9195722792, 9195722784,
        9195749615, 1835298251, 9195749617, 9195749616, 1910143609, 9195749544,
        9195749542, 9195749540, 1910143613, 9195749560, 9195749564, 70750056,
        9195749565
      ],
      "geometry": [
        {
          "lat": 51.5115544,
          "lon": -0.1298759
        },
        {
          "lat": 51.511625,
          "lon": -0.1299152
        },
        {
          "lat": 51.5116232,
          "lon": -0.1299229
        },
        {
          "lat": 51.5116152,
          "lon": -0.1299578
        },
        {
          "lat": 51.511612,
          "lon": -0.129972
        },
        {
          "lat": 51.511552,
          "lon": -0.1302348
        },
        {
          "lat": 51.5115276,
          "lon": -0.1303413
        },
        {
          "lat": 51.5115203,
          "lon": -0.1303734
        },
        {
          "lat": 51.5113619,
          "lon": -0.1302394
        },
        {
          "lat": 51.5113708,
          "lon": -0.1302132
        },
        {
          "lat": 51.5113666,
          "lon": -0.1302096
        },
        {
          "lat": 51.5113696,
          "lon": -0.1302016
        },
        {
          "lat": 51.5113734,
          "lon": -0.1301922
        },
        {
          "lat": 51.5113764,
          "lon": -0.1301852
        },
        {
          "lat": 51.5114033,
          "lon": -0.1301116
        },
        {
          "lat": 51.5114332,
          "lon": -0.1301058
        },
        {
          "lat": 51.5114777,
          "lon": -0.1300791
        },
        {
          "lat": 51.5115036,
          "lon": -0.1300942
        },
        {
          "lat": 51.5115544,
          "lon": -0.1298759
        }
      ],
      "tags": {
        "addr:city": "London",
        "addr:housenumber": "7",
        "addr:postcode": "WC2H 7BY",
        "addr:street": "Leicester Place",
        "air_conditioning": "yes",
        "amenity": "cinema",
        "building": "yes",
        "building:colour": "lightgrey",
        "building:levels": "6",
        "building:material": "concrete",
        "fhrs:id": "411668",
        "fhrs:local_authority_id": "00526/0007/0/001",
        "image": "https://archive.org/details/west-end-2019-05-24/DSCN0063.JPG",
        "name": "Prince Charles Cinema",
        "roof:colour": "grey",
        "roof:shape": "flat",
        "source:addr": "FHRS Open Data",
        "source:postcode": "FSA Food Hygiene Ratings Database",
        "wheelchair": "limited",
        "wikidata": "Q7243849",
        "wikipedia": "en:Prince Charles Cinema"
      }
    },
    {
      "type": "way",
      "id": 199561799,
      "bounds": {
        "minlat": 51.5562926,
        "minlon": -0.1790955,
        "maxlat": 51.5564089,
        "maxlon": -0.1788802
      },
      "nodes": [
        1257763217, 1257801415, 2095564937, 2095564940, 1257763218, 1257763219,
        1257763220, 1257763217
      ],
      "geometry": [
        {
          "lat": 51.5563531,
          "lon": -0.1789108
        },
        {
          "lat": 51.5563144,
          "lon": -0.1788802
        },
        {
          "lat": 51.5562926,
          "lon": -0.1789551
        },
        {
          "lat": 51.556329,
          "lon": -0.1789839
        },
        {
          "lat": 51.5563073,
          "lon": -0.1790469
        },
        {
          "lat": 51.5563632,
          "lon": -0.1790955
        },
        {
          "lat": 51.5564089,
          "lon": -0.1789594
        },
        {
          "lat": 51.5563531,
          "lon": -0.1789108
        }
      ],
      "tags": {
        "amenity": "cinema",
        "brand": "Everyman Cinemas",
        "brand:wikidata": "Q5417852",
        "brand:wikipedia": "en:Everyman Cinemas",
        "building": "yes",
        "name": "Everyman",
        "wikidata": "Q5417851"
      }
    },
    {
      "type": "way",
      "id": 208422244,
      "bounds": {
        "minlat": 51.5279342,
        "minlon": -0.1818709,
        "maxlat": 51.528117,
        "maxlon": -0.1815416
      },
      "nodes": [2187159985, 1381606960, 2187159983, 2187159978, 2187159985],
      "geometry": [
        {
          "lat": 51.5280459,
          "lon": -0.1815416
        },
        {
          "lat": 51.528117,
          "lon": -0.1816251
        },
        {
          "lat": 51.5280053,
          "lon": -0.1818709
        },
        {
          "lat": 51.5279342,
          "lon": -0.1817874
        },
        {
          "lat": 51.5280459,
          "lon": -0.1815416
        }
      ],
      "tags": {
        "addr:city": "London",
        "addr:housenumber": "215",
        "addr:postcode": "W9 1RU",
        "addr:street": "Sutherland Avenue",
        "amenity": "cinema",
        "brand": "Everyman Cinemas",
        "brand:wikidata": "Q5417852",
        "building": "yes",
        "building:levels": "2",
        "check_date": "2025-04-02",
        "contact:website": "http://www.everymancinema.com/cinemas/maida-vale/find-us",
        "name": "Everyman",
        "payment:american_express": "yes"
      }
    },
    {
      "type": "way",
      "id": 218259617,
      "bounds": {
        "minlat": 51.490264,
        "minlon": 0.012258,
        "maxlat": 51.4909361,
        "maxlon": 0.0133114
      },
      "nodes": [
        9723449183, 1936974673, 1936974669, 1936974701, 1936974683, 1936974678,
        9723449186, 9723449185, 9723449184, 9723449187, 9723449195, 9723449189,
        9723449188, 1936974713, 9723449196, 1936974686, 9723449197, 1936974698,
        9723449192, 9723449191, 9723449190, 9723449193, 1936974681, 9723449198,
        7162446963, 1936974723, 9723449199, 1936974684, 9723449200, 7162446964,
        1936974706, 1936974680, 2275267673, 9723449194, 2275267667, 2275267677,
        1936974711, 1936974708, 9723449182, 9723449181, 9723449180, 9723449183
      ],
      "geometry": [
        {
          "lat": 51.4905104,
          "lon": 0.0132838
        },
        {
          "lat": 51.490555,
          "lon": 0.0132996
        },
        {
          "lat": 51.4906276,
          "lon": 0.0132989
        },
        {
          "lat": 51.4906982,
          "lon": 0.0132725
        },
        {
          "lat": 51.4907635,
          "lon": 0.0132216
        },
        {
          "lat": 51.4908201,
          "lon": 0.0131489
        },
        {
          "lat": 51.490827,
          "lon": 0.013135
        },
        {
          "lat": 51.4908463,
          "lon": 0.013158
        },
        {
          "lat": 51.4908906,
          "lon": 0.0130619
        },
        {
          "lat": 51.4908713,
          "lon": 0.0130389
        },
        {
          "lat": 51.4908958,
          "lon": 0.0129612
        },
        {
          "lat": 51.4909185,
          "lon": 0.0129699
        },
        {
          "lat": 51.4909361,
          "lon": 0.0128514
        },
        {
          "lat": 51.4909134,
          "lon": 0.0128427
        },
        {
          "lat": 51.4909135,
          "lon": 0.0127228
        },
        {
          "lat": 51.4908977,
          "lon": 0.0126091
        },
        {
          "lat": 51.4908667,
          "lon": 0.0125038
        },
        {
          "lat": 51.4908219,
          "lon": 0.0124121
        },
        {
          "lat": 51.4907846,
          "lon": 0.0123633
        },
        {
          "lat": 51.4907953,
          "lon": 0.012334
        },
        {
          "lat": 51.4907288,
          "lon": 0.0122715
        },
        {
          "lat": 51.4907181,
          "lon": 0.0123008
        },
        {
          "lat": 51.4907006,
          "lon": 0.0122869
        },
        {
          "lat": 51.4906301,
          "lon": 0.0122596
        },
        {
          "lat": 51.4905576,
          "lon": 0.012258
        },
        {
          "lat": 51.4905109,
          "lon": 0.0122709
        },
        {
          "lat": 51.4904594,
          "lon": 0.0122989
        },
        {
          "lat": 51.4904115,
          "lon": 0.0123403
        },
        {
          "lat": 51.4903654,
          "lon": 0.0123986
        },
        {
          "lat": 51.4903266,
          "lon": 0.0124692
        },
        {
          "lat": 51.4902964,
          "lon": 0.0125496
        },
        {
          "lat": 51.4902756,
          "lon": 0.0126374
        },
        {
          "lat": 51.490264,
          "lon": 0.012747
        },
        {
          "lat": 51.4902677,
          "lon": 0.0128639
        },
        {
          "lat": 51.490287,
          "lon": 0.0129747
        },
        {
          "lat": 51.4903155,
          "lon": 0.0130629
        },
        {
          "lat": 51.4903614,
          "lon": 0.0131532
        },
        {
          "lat": 51.4904186,
          "lon": 0.0132249
        },
        {
          "lat": 51.4904373,
          "lon": 0.0132391
        },
        {
          "lat": 51.4904307,
          "lon": 0.0132667
        },
        {
          "lat": 51.4905038,
          "lon": 0.0133114
        },
        {
          "lat": 51.4905104,
          "lon": 0.0132838
        }
      ],
      "tags": {
        "addr:city": "London",
        "addr:housenumber": "61",
        "addr:postcode": "SE10 0QJ",
        "addr:street": "Bugsby's Way",
        "addr:suburb": "Charlton",
        "amenity": "cinema",
        "brand": "Odeon",
        "brand:wikidata": "Q6127470",
        "building": "yes",
        "building:levels": "4",
        "check_date": "2024-10-24",
        "contact:website": "https://www.odeon.co.uk/cinemas/greenwich/",
        "fhrs:id": "694144",
        "name": "Odeon IMAX",
        "roof:shape": "flat",
        "screen": "14",
        "wikidata": "Q42118568"
      }
    },
    {
      "type": "way",
      "id": 224192326,
      "bounds": {
        "minlat": 51.5495548,
        "minlon": -0.0757788,
        "maxlat": 51.5497413,
        "maxlon": -0.0753724
      },
      "nodes": [
        2330164417, 2330164418, 2330164656, 2330164655, 2330164653, 2330164657,
        2330164654, 2330164652, 2330164650, 2330164651, 2330164413, 2330164422,
        3376589720, 3376589721, 2330164409, 2330164417
      ],
      "geometry": [
        {
          "lat": 51.5495548,
          "lon": -0.0754036
        },
        {
          "lat": 51.5496753,
          "lon": -0.0753898
        },
        {
          "lat": 51.5496845,
          "lon": -0.0753777
        },
        {
          "lat": 51.5496975,
          "lon": -0.0753724
        },
        {
          "lat": 51.5497096,
          "lon": -0.0753724
        },
        {
          "lat": 51.5497231,
          "lon": -0.0753804
        },
        {
          "lat": 51.5497339,
          "lon": -0.0753952
        },
        {
          "lat": 51.5497396,
          "lon": -0.0754166
        },
        {
          "lat": 51.5497413,
          "lon": -0.0754408
        },
        {
          "lat": 51.5497387,
          "lon": -0.0754555
        },
        {
          "lat": 51.5497345,
          "lon": -0.0754703
        },
        {
          "lat": 51.5497353,
          "lon": -0.0755742
        },
        {
          "lat": 51.5496942,
          "lon": -0.0757788
        },
        {
          "lat": 51.5495645,
          "lon": -0.0757546
        },
        {
          "lat": 51.5495622,
          "lon": -0.0755394
        },
        {
          "lat": 51.5495548,
          "lon": -0.0754036
        }
      ],
      "tags": {
        "addr:city": "London",
        "addr:housenumber": "107",
        "addr:postcode": "E8 2PB",
        "addr:street": "Kingsland High Street",
        "amenity": "cinema",
        "building": "yes",
        "building:colour": "white",
        "building:levels": "4",
        "building:material": "plaster",
        "capacity": "402",
        "contact:website": "http://riocinema.com/",
        "email": "admin@riocinema.org.uk",
        "fhrs:id": "468824",
        "image": "File:Rio Cinema (Dalston).jpg",
        "name": "Rio Cinema",
        "old_name": "Kingsland Picture Palace;Kingsland Empire;Classic;Tatler",
        "phone": "+44 20 7241 9410",
        "roof:colour": "grey",
        "roof:shape": "hipped",
        "screen": "2",
        "start_date": "1909",
        "wheelchair": "yes",
        "wikidata": "Q18161458",
        "wikipedia": "en:Rio Cinema, Dalston"
      }
    },
    {
      "type": "way",
      "id": 291651296,
      "bounds": {
        "minlat": 51.5240176,
        "minlon": -0.123244,
        "maxlat": 51.5241086,
        "maxlon": -0.12305
      },
      "nodes": [
        2951164814, 2951164815, 2951164816, 2951164817, 2951164818, 2951164819,
        2951164820, 2951164821, 2951164814
      ],
      "geometry": [
        {
          "lat": 51.5240933,
          "lon": -0.123244
        },
        {
          "lat": 51.5240176,
          "lon": -0.1231995
        },
        {
          "lat": 51.5240288,
          "lon": -0.1231505
        },
        {
          "lat": 51.5240458,
          "lon": -0.1231606
        },
        {
          "lat": 51.524071,
          "lon": -0.12305
        },
        {
          "lat": 51.5241086,
          "lon": -0.1230721
        },
        {
          "lat": 51.5240836,
          "lon": -0.1231818
        },
        {
          "lat": 51.5241047,
          "lon": -0.1231942
        },
        {
          "lat": 51.5240933,
          "lon": -0.123244
        }
      ],
      "tags": {
        "addr:city": "London",
        "addr:postcode": "WC1N 1AW",
        "addr:street": "The Brunswick",
        "amenity": "cinema",
        "brand": "Curzon",
        "brand:wikidata": "Q16953326",
        "building": "yes",
        "check_date": "2025-03-24",
        "name": "Curzon Bloomsbury",
        "old_name": "Curzon Renoir",
        "website": "https://www.curzon.com/venues/bloomsbury/",
        "wheelchair": "yes",
        "wikidata": "Q41895623"
      }
    },
    {
      "type": "way",
      "id": 332400975,
      "bounds": {
        "minlat": 51.455826,
        "minlon": 0.1497173,
        "maxlat": 51.4564688,
        "maxlon": 0.1509049
      },
      "nodes": [
        3395219848, 5747790869, 5747790868, 3395219846, 3395219839, 3395219838,
        3395219840, 3395219841, 5747790870, 3395219842, 3395219843, 3395219844,
        3395219848
      ],
      "geometry": [
        {
          "lat": 51.4564688,
          "lon": 0.1498305
        },
        {
          "lat": 51.456363,
          "lon": 0.1503485
        },
        {
          "lat": 51.4563292,
          "lon": 0.1503244
        },
        {
          "lat": 51.4562096,
          "lon": 0.1509049
        },
        {
          "lat": 51.4558947,
          "lon": 0.1507419
        },
        {
          "lat": 51.455826,
          "lon": 0.1507084
        },
        {
          "lat": 51.4559909,
          "lon": 0.149956
        },
        {
          "lat": 51.4560107,
          "lon": 0.1498185
        },
        {
          "lat": 51.4560541,
          "lon": 0.149769
        },
        {
          "lat": 51.4561135,
          "lon": 0.1497579
        },
        {
          "lat": 51.4561776,
          "lon": 0.1497959
        },
        {
          "lat": 51.4561972,
          "lon": 0.1497173
        },
        {
          "lat": 51.4564688,
          "lon": 0.1498305
        }
      ],
      "tags": {
        "amenity": "cinema",
        "brand": "Cineworld",
        "brand:wikidata": "Q5120901",
        "building": "yes",
        "name": "Cineworld",
        "website": "https://www.cineworld.co.uk/cinemas/london-bexleyheath/027"
      }
    },
    {
      "type": "way",
      "id": 356675364,
      "bounds": {
        "minlat": 51.508566,
        "minlon": -0.1975965,
        "maxlat": 51.5088104,
        "maxlon": -0.1970981
      },
      "nodes": [
        3620876539, 2724984564, 2734715256, 3620876526, 3620876519, 3620876499,
        3620876507, 3620876515, 3620876520, 3620876521, 3620876523, 3620876518,
        3620876522, 3620876529, 3620876533, 3620876524, 3620876530, 3620876534,
        3620876539
      ],
      "geometry": [
        {
          "lat": 51.5087332,
          "lon": -0.1973073
        },
        {
          "lat": 51.5087776,
          "lon": -0.1973282
        },
        {
          "lat": 51.5088104,
          "lon": -0.1971638
        },
        {
          "lat": 51.5086919,
          "lon": -0.1970981
        },
        {
          "lat": 51.5086636,
          "lon": -0.1971165
        },
        {
          "lat": 51.508566,
          "lon": -0.1975348
        },
        {
          "lat": 51.5086119,
          "lon": -0.197562
        },
        {
          "lat": 51.5086486,
          "lon": -0.1975862
        },
        {
          "lat": 51.5086684,
          "lon": -0.1975965
        },
        {
          "lat": 51.5086737,
          "lon": -0.1975765
        },
        {
          "lat": 51.5086841,
          "lon": -0.1975318
        },
        {
          "lat": 51.5086624,
          "lon": -0.1975176
        },
        {
          "lat": 51.5086757,
          "lon": -0.1974605
        },
        {
          "lat": 51.5086977,
          "lon": -0.1974701
        },
        {
          "lat": 51.5087069,
          "lon": -0.197427
        },
        {
          "lat": 51.5086859,
          "lon": -0.1974151
        },
        {
          "lat": 51.5086979,
          "lon": -0.1973591
        },
        {
          "lat": 51.5087191,
          "lon": -0.1973714
        },
        {
          "lat": 51.5087332,
          "lon": -0.1973073
        }
      ],
      "tags": {
        "addr:city": "London",
        "addr:housenumber": "87",
        "addr:postcode": "W11 3JZ",
        "addr:street": "Notting Hill Gate",
        "amenity": "cinema",
        "brand": "Picturehouse Cinemas",
        "brand:wikidata": "Q7191215",
        "building": "yes",
        "building:colour": "white",
        "building:levels": "3",
        "building:material": "plaster",
        "name": "Gate Cinema",
        "old_name": "Embassy Cinema",
        "source:old_name": "1954 OS map",
        "website": "http://www.picturehouses.co.uk/cinema/Gate_Picturehouse/",
        "wikidata": "Q27086823"
      }
    },
    {
      "type": "way",
      "id": 357556094,
      "bounds": {
        "minlat": 51.5154236,
        "minlon": -0.2052783,
        "maxlat": 51.5156353,
        "maxlon": -0.2048524
      },
      "nodes": [255684798, 3627822493, 3627822519, 3627822522, 255684798],
      "geometry": [
        {
          "lat": 51.5154987,
          "lon": -0.2048524
        },
        {
          "lat": 51.5154236,
          "lon": -0.2052026
        },
        {
          "lat": 51.5155494,
          "lon": -0.2052783
        },
        {
          "lat": 51.5156353,
          "lon": -0.2049315
        },
        {
          "lat": 51.5154987,
          "lon": -0.2048524
        }
      ],
      "tags": {
        "addr:city": "London",
        "addr:housenumber": "191",
        "addr:postcode": "W11 2ED",
        "addr:street": "Portobello Road",
        "amenity": "cinema",
        "building": "yes",
        "name": "Electric Cinema",
        "ref:GB:uprn": "217069435",
        "wikidata": "Q5357329",
        "wikipedia": "en:Electric Cinema, Notting Hill"
      }
    },
    {
      "type": "way",
      "id": 399428758,
      "bounds": {
        "minlat": 51.5894541,
        "minlon": -0.1466572,
        "maxlat": 51.5897354,
        "maxlon": -0.1457594
      },
      "nodes": [
        5215445507, 5215445512, 4021758418, 5215445506, 4021758419, 5215445505,
        4021758421, 4021758423, 9692133535, 4021759125, 9692133536, 9692133542,
        9692133541, 9692133540, 5215445504, 5215445498, 4021758446, 5215445499,
        9692133537, 5215445500, 9692133538, 5215445501, 9692133539, 9692133544,
        9692133546, 9692816408, 9692133545, 9692133543, 4021758474, 5215445502,
        5215445503, 11739567668, 5215445507
      ],
      "geometry": [
        {
          "lat": 51.5897354,
          "lon": -0.1465799
        },
        {
          "lat": 51.5896942,
          "lon": -0.1465844
        },
        {
          "lat": 51.5896707,
          "lon": -0.1466502
        },
        {
          "lat": 51.5895833,
          "lon": -0.1466572
        },
        {
          "lat": 51.5895571,
          "lon": -0.1465939
        },
        {
          "lat": 51.589513,
          "lon": -0.1465949
        },
        {
          "lat": 51.589506,
          "lon": -0.1463141
        },
        {
          "lat": 51.5894829,
          "lon": -0.1463152
        },
        {
          "lat": 51.5894827,
          "lon": -0.1463003
        },
        {
          "lat": 51.5894686,
          "lon": -0.1463007
        },
        {
          "lat": 51.5894561,
          "lon": -0.1462765
        },
        {
          "lat": 51.5894541,
          "lon": -0.1461445
        },
        {
          "lat": 51.5894832,
          "lon": -0.1461434
        },
        {
          "lat": 51.589481,
          "lon": -0.1460599
        },
        {
          "lat": 51.589465,
          "lon": -0.1460314
        },
        {
          "lat": 51.589568,
          "lon": -0.1459111
        },
        {
          "lat": 51.5895961,
          "lon": -0.1459022
        },
        {
          "lat": 51.5895864,
          "lon": -0.1457874
        },
        {
          "lat": 51.5896035,
          "lon": -0.1457854
        },
        {
          "lat": 51.5896042,
          "lon": -0.1457594
        },
        {
          "lat": 51.5896329,
          "lon": -0.145785
        },
        {
          "lat": 51.5896302,
          "lon": -0.145809
        },
        {
          "lat": 51.5896596,
          "lon": -0.1458373
        },
        {
          "lat": 51.5896547,
          "lon": -0.14585
        },
        {
          "lat": 51.5896708,
          "lon": -0.1458694
        },
        {
          "lat": 51.5896778,
          "lon": -0.1458857
        },
        {
          "lat": 51.5896849,
          "lon": -0.1459019
        },
        {
          "lat": 51.5896913,
          "lon": -0.1459335
        },
        {
          "lat": 51.5897007,
          "lon": -0.1459244
        },
        {
          "lat": 51.5897085,
          "lon": -0.1459813
        },
        {
          "lat": 51.5897256,
          "lon": -0.1459811
        },
        {
          "lat": 51.5897322,
          "lon": -0.1463862
        },
        {
          "lat": 51.5897354,
          "lon": -0.1465799
        }
      ],
      "tags": {
        "addr:city": "London",
        "addr:postcode": "N10 3HP",
        "addr:street": "Fortis Green Road",
        "amenity": "cinema",
        "building": "commercial",
        "description": "Art deco cinema",
        "fhrs:id": "422630",
        "internet_access": "wlan",
        "internet_access:fee": "no",
        "name": "Everyman Cinema",
        "not:brand:wikidata": "Q5417852",
        "opening_hours": "Mo-Su 12:00-23:00",
        "screen": "3",
        "toilets": "yes",
        "toilets:access": "customers",
        "wheelchair": "limited",
        "wikidata": "Q17551377"
      }
    },
    {
      "type": "way",
      "id": 425222125,
      "bounds": {
        "minlat": 51.5182196,
        "minlon": -0.132841,
        "maxlat": 51.5184992,
        "maxlon": -0.1323288
      },
      "nodes": [
        254924501, 1484198414, 4247304414, 1484198433, 464800450, 4247510592,
        4247304417, 4247510593, 4247510594, 1484198312, 4247510595, 367735573,
        4247304421, 4247304422, 1484198288, 12978761149, 4245251054, 4247304419,
        254924501
      ],
      "geometry": [
        {
          "lat": 51.5183898,
          "lon": -0.1323288
        },
        {
          "lat": 51.5182647,
          "lon": -0.1326655
        },
        {
          "lat": 51.5182405,
          "lon": -0.1327323
        },
        {
          "lat": 51.5182196,
          "lon": -0.1327898
        },
        {
          "lat": 51.5182702,
          "lon": -0.132841
        },
        {
          "lat": 51.5182918,
          "lon": -0.1328023
        },
        {
          "lat": 51.5182986,
          "lon": -0.13279
        },
        {
          "lat": 51.5183292,
          "lon": -0.1327349
        },
        {
          "lat": 51.5183636,
          "lon": -0.1326733
        },
        {
          "lat": 51.5183957,
          "lon": -0.1326156
        },
        {
          "lat": 51.5184087,
          "lon": -0.1325928
        },
        {
          "lat": 51.5184501,
          "lon": -0.1325198
        },
        {
          "lat": 51.5184735,
          "lon": -0.1324785
        },
        {
          "lat": 51.5184879,
          "lon": -0.1324532
        },
        {
          "lat": 51.5184992,
          "lon": -0.1324332
        },
        {
          "lat": 51.5184834,
          "lon": -0.1324182
        },
        {
          "lat": 51.5184232,
          "lon": -0.1323607
        },
        {
          "lat": 51.5184141,
          "lon": -0.1323521
        },
        {
          "lat": 51.5183898,
          "lon": -0.1323288
        }
      ],
      "tags": {
        "addr:city": "London",
        "addr:housenumber": "30",
        "addr:postcode": "W1T 1BX",
        "addr:street": "Tottenham Court Road",
        "amenity": "cinema",
        "brand": "Odeon",
        "brand:wikidata": "Q6127470",
        "brand:wikipedia": "en:Odeon Cinemas",
        "check_date": "2024-05-16",
        "contact:website": "https://www.odeon.co.uk/cinemas/london-tottenham-court-road/",
        "fhrs:id": "424408",
        "name": "Odeon",
        "payment:cash": "yes",
        "payment:credit_cards": "yes",
        "payment:debit_cards": "yes",
        "source:addr": "FHRS Open Data"
      }
    },
    {
      "type": "way",
      "id": 432809894,
      "bounds": {
        "minlat": 51.4592732,
        "minlon": -0.3056597,
        "maxlat": 51.459488,
        "maxlon": -0.3052459
      },
      "nodes": [
        4317609253, 4317609257, 4317609248, 4317609251, 4317609250, 4317609247,
        4317609240, 4317609243, 4317609236, 4317609234, 4317609237, 4317609253
      ],
      "geometry": [
        {
          "lat": 51.4594599,
          "lon": -0.3056597
        },
        {
          "lat": 51.459488,
          "lon": -0.3055436
        },
        {
          "lat": 51.4594462,
          "lon": -0.3055155
        },
        {
          "lat": 51.4594554,
          "lon": -0.3054672
        },
        {
          "lat": 51.4594504,
          "lon": -0.3054283
        },
        {
          "lat": 51.4594429,
          "lon": -0.3053827
        },
        {
          "lat": 51.4594186,
          "lon": -0.3053384
        },
        {
          "lat": 51.4594278,
          "lon": -0.3053036
        },
        {
          "lat": 51.459351,
          "lon": -0.3052459
        },
        {
          "lat": 51.4592732,
          "lon": -0.3055168
        },
        {
          "lat": 51.4593543,
          "lon": -0.3055825
        },
        {
          "lat": 51.4594599,
          "lon": -0.3056597
        }
      ],
      "tags": {
        "addr:city": "Richmond",
        "addr:housenumber": "6",
        "addr:postcode": "TW9 1RW",
        "addr:street": "Red Lion Street",
        "amenity": "cinema",
        "brand": "Odeon",
        "brand:wikidata": "Q6127470",
        "brand:wikipedia": "en:Odeon Cinemas",
        "building": "yes",
        "building:levels": "2",
        "check_date": "2024-07-06",
        "internet_access": "no",
        "name": "Odeon Richmond Studio (Screens 4-7)",
        "note": "Screens 4 to 7 of Odeon Richmond.",
        "operator": "Odeon",
        "payment:american_express": "yes",
        "payment:credit_cards": "yes",
        "payment:mastercard": "yes",
        "payment:visa": "yes",
        "source:addr:postcode": "code-point_open",
        "toilets": "yes",
        "toilets:access": "customers",
        "toilets:handwashing": "yes",
        "website": "https://www.odeon.co.uk/cinemas/richmond/",
        "wheelchair": "limited"
      }
    },
    {
      "type": "way",
      "id": 451257601,
      "bounds": {
        "minlat": 51.4649597,
        "minlon": -0.2143116,
        "maxlat": 51.4653945,
        "maxlon": -0.213523
      },
      "nodes": [
        4480859695, 4480859691, 4480859690, 8301294409, 8301294408, 4480859696,
        4480859698, 4480859697, 4480859695
      ],
      "geometry": [
        {
          "lat": 51.4649597,
          "lon": -0.2137168
        },
        {
          "lat": 51.4650826,
          "lon": -0.214095
        },
        {
          "lat": 51.4651538,
          "lon": -0.2143116
        },
        {
          "lat": 51.4652277,
          "lon": -0.2142475
        },
        {
          "lat": 51.4652395,
          "lon": -0.2142869
        },
        {
          "lat": 51.4653945,
          "lon": -0.2141544
        },
        {
          "lat": 51.46529,
          "lon": -0.2138273
        },
        {
          "lat": 51.465191,
          "lon": -0.213523
        },
        {
          "lat": 51.4649597,
          "lon": -0.2137168
        }
      ],
      "tags": {
        "addr:city": "London",
        "addr:housenumber": "25",
        "addr:postcode": "SW15 1SN",
        "addr:street": "Putney High Street",
        "amenity": "cinema",
        "brand": "Odeon",
        "brand:wikidata": "Q6127470",
        "brand:wikipedia": "en:Odeon Cinemas",
        "building": "yes",
        "check_date": "2024-10-26",
        "contact:website": "https://www.odeon.co.uk/cinemas/putney/",
        "fhrs:authority": "Wandsworth",
        "fhrs:id": "1572276",
        "fhrs:local_authority_id": "PI/000437151",
        "name": "ODEON Putney",
        "opening_hours:signed": "no",
        "ref:GB:uprn": "100023311345",
        "source": "survey",
        "toilets": "yes",
        "toilets:access": "yes",
        "toilets:handwashing": "yes",
        "wikidata": "Q42203844"
      }
    },
    {
      "type": "way",
      "id": 467469463,
      "bounds": {
        "minlat": 51.5374618,
        "minlon": -0.2225902,
        "maxlat": 51.5375932,
        "maxlon": -0.2223604
      },
      "nodes": [4620848605, 4620848602, 4620848603, 4620848604, 4620848605],
      "geometry": [
        {
          "lat": 51.5375932,
          "lon": -0.2224253
        },
        {
          "lat": 51.5375409,
          "lon": -0.2223604
        },
        {
          "lat": 51.5374618,
          "lon": -0.2225254
        },
        {
          "lat": 51.537514,
          "lon": -0.2225902
        },
        {
          "lat": 51.5375932,
          "lon": -0.2224253
        }
      ],
      "tags": {
        "addr:city": "London",
        "addr:housenumber": "194b",
        "addr:postcode": "NW10 3JU",
        "addr:street": "Chamberlayne Road",
        "amenity": "cinema",
        "building": "yes",
        "building:colour": "gray",
        "building:levels": "2",
        "check_date": "2024-08-22",
        "contact:website": "https://thelexicinema.co.uk/",
        "ele": "62.37",
        "name": "Lexi Cinema",
        "ref:GB:uprn": "202118226",
        "roof:colour": "black",
        "roof:shape": "gabled",
        "wikidata": "Q42164327"
      }
    },
    {
      "type": "way",
      "id": 490724409,
      "bounds": {
        "minlat": 51.5511831,
        "minlon": -0.0435326,
        "maxlat": 51.5514772,
        "maxlon": -0.0428537
      },
      "nodes": [
        4829130882, 7961281922, 7961281921, 7961281926, 7961281927, 7961281920,
        7961281919, 7961281895, 7961281918, 7961281917, 7922826590, 7961281916,
        4829130877, 7961281915, 7961281914, 7961281913, 4829130874, 4829130869,
        7961281937, 4829130864, 7961281939, 4829130870, 7961281940, 7961282044,
        7961281944, 4829130878, 7961281912, 7961281942, 4829130882
      ],
      "geometry": [
        {
          "lat": 51.5513881,
          "lon": -0.0431503
        },
        {
          "lat": 51.5513609,
          "lon": -0.0431353
        },
        {
          "lat": 51.5513697,
          "lon": -0.0430951
        },
        {
          "lat": 51.5514218,
          "lon": -0.0431219
        },
        {
          "lat": 51.5514535,
          "lon": -0.0429871
        },
        {
          "lat": 51.5514097,
          "lon": -0.0429609
        },
        {
          "lat": 51.5514189,
          "lon": -0.0429167
        },
        {
          "lat": 51.5514658,
          "lon": -0.0429311
        },
        {
          "lat": 51.5514735,
          "lon": -0.0429334
        },
        {
          "lat": 51.5514772,
          "lon": -0.0428902
        },
        {
          "lat": 51.5513513,
          "lon": -0.042859
        },
        {
          "lat": 51.5513221,
          "lon": -0.0428537
        },
        {
          "lat": 51.5512969,
          "lon": -0.0429649
        },
        {
          "lat": 51.5512846,
          "lon": -0.0430183
        },
        {
          "lat": 51.5513167,
          "lon": -0.0430347
        },
        {
          "lat": 51.5513012,
          "lon": -0.0431023
        },
        {
          "lat": 51.5512757,
          "lon": -0.0430882
        },
        {
          "lat": 51.5512228,
          "lon": -0.0432979
        },
        {
          "lat": 51.5511975,
          "lon": -0.0434051
        },
        {
          "lat": 51.5511831,
          "lon": -0.0434666
        },
        {
          "lat": 51.5511911,
          "lon": -0.0434712
        },
        {
          "lat": 51.5512026,
          "lon": -0.043478
        },
        {
          "lat": 51.5512099,
          "lon": -0.0434826
        },
        {
          "lat": 51.5512395,
          "lon": -0.043499
        },
        {
          "lat": 51.5512689,
          "lon": -0.0435159
        },
        {
          "lat": 51.551298,
          "lon": -0.0435326
        },
        {
          "lat": 51.5512994,
          "lon": -0.0435265
        },
        {
          "lat": 51.5513127,
          "lon": -0.0434701
        },
        {
          "lat": 51.5513881,
          "lon": -0.0431503
        }
      ],
      "tags": {
        "addr:city": "London",
        "addr:housenumber": "64-66",
        "addr:postcode": "E9 6DA",
        "addr:street": "Brooksby's Walk",
        "air_conditioning": "yes",
        "amenity": "cinema",
        "bar": "yes",
        "building": "retail",
        "changing_table": "yes",
        "check_date": "2025-01-02",
        "contact:twitter": "@thecastlecinema",
        "cuisine": "coffee_shop",
        "email": "hello@thecastlecinema.com",
        "fhrs:id": "470493",
        "food": "yes",
        "internet_access": "wlan",
        "internet_access:fee": "customers",
        "internet_access:ssid": "Castle Cinema Guest",
        "name": "Castle Cinema",
        "note": "building was originally all \"Castle Cinema\" - now cinema is in top floor, Spar lower",
        "opening_hours": "Mo-Sun 10:00+",
        "payment:cash": "no",
        "payment:credit_cards": "yes",
        "payment:debit_cards": "yes",
        "roof:colour": "grey",
        "screen": "2",
        "toilets": "yes",
        "toilets:access": "customers",
        "toilets:wheelchair": "yes",
        "website": "https://thecastlecinema.com/",
        "wheelchair": "no",
        "wikidata": "Q42163640"
      }
    },
    {
      "type": "way",
      "id": 495107775,
      "bounds": {
        "minlat": 51.5111424,
        "minlon": -0.129774,
        "maxlat": 51.511692,
        "maxlon": -0.1292595
      },
      "nodes": [
        9176900319, 11014431701, 11014497709, 1835298186, 9176889614,
        11014493237, 1835298172, 9176900326, 9195722786, 9195722783, 9195722785,
        9195722776, 9176900325, 9176900323, 9176900318, 9176900322, 9176900321,
        9176900320, 9176889613, 9176900319
      ],
      "geometry": [
        {
          "lat": 51.5111424,
          "lon": -0.1295383
        },
        {
          "lat": 51.5111565,
          "lon": -0.1294804
        },
        {
          "lat": 51.5111987,
          "lon": -0.1293075
        },
        {
          "lat": 51.5112104,
          "lon": -0.1292595
        },
        {
          "lat": 51.5112703,
          "lon": -0.1292786
        },
        {
          "lat": 51.5113101,
          "lon": -0.1292913
        },
        {
          "lat": 51.5116843,
          "lon": -0.1294108
        },
        {
          "lat": 51.511692,
          "lon": -0.129431
        },
        {
          "lat": 51.5116827,
          "lon": -0.1295158
        },
        {
          "lat": 51.5116737,
          "lon": -0.1295987
        },
        {
          "lat": 51.5116651,
          "lon": -0.1296778
        },
        {
          "lat": 51.5116567,
          "lon": -0.1297543
        },
        {
          "lat": 51.5116546,
          "lon": -0.129774
        },
        {
          "lat": 51.5116052,
          "lon": -0.1297598
        },
        {
          "lat": 51.5116063,
          "lon": -0.1297516
        },
        {
          "lat": 51.5116083,
          "lon": -0.1297358
        },
        {
          "lat": 51.5112941,
          "lon": -0.1296345
        },
        {
          "lat": 51.5112903,
          "lon": -0.1295963
        },
        {
          "lat": 51.5112323,
          "lon": -0.1295735
        },
        {
          "lat": 51.5111424,
          "lon": -0.1295383
        }
      ],
      "tags": {
        "amenity": "cinema",
        "building": "yes"
      }
    },
    {
      "type": "way",
      "id": 595814487,
      "bounds": {
        "minlat": 51.4751269,
        "minlon": -0.240857,
        "maxlat": 51.4754127,
        "maxlon": -0.2404224
      },
      "nodes": [
        5677639443, 5677639444, 5677639445, 9722460895, 9722460896, 5677639446,
        5677639443
      ],
      "geometry": [
        {
          "lat": 51.4754127,
          "lon": -0.2405111
        },
        {
          "lat": 51.4751775,
          "lon": -0.2404224
        },
        {
          "lat": 51.4751269,
          "lon": -0.2407682
        },
        {
          "lat": 51.4751404,
          "lon": -0.2407739
        },
        {
          "lat": 51.4753524,
          "lon": -0.2408527
        },
        {
          "lat": 51.475362,
          "lon": -0.240857
        },
        {
          "lat": 51.4754127,
          "lon": -0.2405111
        }
      ],
      "tags": {
        "addr:city": "London",
        "addr:housenumber": "117-123",
        "addr:postcode": "SW13 9HL",
        "addr:street": "Church Road",
        "amenity": "cinema",
        "building": "retail",
        "building:levels": "2",
        "fhrs:id": "654146",
        "name": "Olympic Studios",
        "name:ja": "オリンピックスタジオ",
        "roof:levels": "1",
        "source:addr": "FHRS Open Data",
        "wikidata": "Q943742"
      }
    },
    {
      "type": "way",
      "id": 597454248,
      "bounds": {
        "minlat": 51.4698357,
        "minlon": -0.0678023,
        "maxlat": 51.4699891,
        "maxlon": -0.0672944
      },
      "nodes": [
        290399078, 4541329573, 5661526770, 11512100093, 11512100090,
        11512100091, 5686715711, 5686715712, 5686715710, 290399078
      ],
      "geometry": [
        {
          "lat": 51.4699332,
          "lon": -0.0678023
        },
        {
          "lat": 51.4699025,
          "lon": -0.0677931
        },
        {
          "lat": 51.4698357,
          "lon": -0.067773
        },
        {
          "lat": 51.4698433,
          "lon": -0.0677084
        },
        {
          "lat": 51.4698701,
          "lon": -0.0674783
        },
        {
          "lat": 51.4698829,
          "lon": -0.0673691
        },
        {
          "lat": 51.4698916,
          "lon": -0.0672944
        },
        {
          "lat": 51.4699411,
          "lon": -0.0673093
        },
        {
          "lat": 51.4699891,
          "lon": -0.0673237
        },
        {
          "lat": 51.4699332,
          "lon": -0.0678023
        }
      ],
      "tags": {
        "addr:city": "London",
        "addr:country": "GB",
        "addr:housename": "Bussey Building",
        "addr:housenumber": "133",
        "addr:postcode": "SE15 4ST",
        "addr:street": "Rye Lane",
        "addr:unit": "A Roof",
        "amenity": "cinema",
        "level": "5",
        "name": "Rooftop Film Club"
      }
    },
    {
      "type": "way",
      "id": 708645222,
      "bounds": {
        "minlat": 51.5584839,
        "minlon": -0.4013594,
        "maxlat": 51.5593227,
        "maxlon": -0.39981
      },
      "nodes": [
        6659048843, 7120308380, 6659048844, 7120308378, 7120308379, 6659048845,
        6659048846, 6659048847, 6659048848, 6659048849, 6659048850, 6659048851,
        6659048852, 6659048853, 6659048854, 6659048855, 6659048856, 6659048857,
        6659072276, 6659048858, 6659048860, 6659048861, 6659048843
      ],
      "geometry": [
        {
          "lat": 51.5585779,
          "lon": -0.4011881
        },
        {
          "lat": 51.5586549,
          "lon": -0.4010699
        },
        {
          "lat": 51.5588619,
          "lon": -0.4013594
        },
        {
          "lat": 51.5590657,
          "lon": -0.400984
        },
        {
          "lat": 51.5590943,
          "lon": -0.4009921
        },
        {
          "lat": 51.5592829,
          "lon": -0.4006649
        },
        {
          "lat": 51.5593077,
          "lon": -0.4005901
        },
        {
          "lat": 51.5593227,
          "lon": -0.4005169
        },
        {
          "lat": 51.5593183,
          "lon": -0.4004413
        },
        {
          "lat": 51.5593127,
          "lon": -0.4003691
        },
        {
          "lat": 51.5592923,
          "lon": -0.4003015
        },
        {
          "lat": 51.559271,
          "lon": -0.4002555
        },
        {
          "lat": 51.5592423,
          "lon": -0.4001911
        },
        {
          "lat": 51.5591943,
          "lon": -0.4001301
        },
        {
          "lat": 51.5591591,
          "lon": -0.4000775
        },
        {
          "lat": 51.5591349,
          "lon": -0.4000317
        },
        {
          "lat": 51.5591138,
          "lon": -0.3999695
        },
        {
          "lat": 51.5591014,
          "lon": -0.3998877
        },
        {
          "lat": 51.5591014,
          "lon": -0.39981
        },
        {
          "lat": 51.5584839,
          "lon": -0.400923
        },
        {
          "lat": 51.5585871,
          "lon": -0.4010674
        },
        {
          "lat": 51.5585451,
          "lon": -0.4011467
        },
        {
          "lat": 51.5585779,
          "lon": -0.4011881
        }
      ],
      "tags": {
        "amenity": "cinema",
        "brand": "Cineworld",
        "brand:wikidata": "Q5120901",
        "brand:wikipedia": "en:Cineworld",
        "building": "yes",
        "layer": "2",
        "name": "Cineworld",
        "website": "https://www.cineworld.co.uk/cinemas/london-south-ruislip/106",
        "wikidata": "Q41782148"
      }
    },
    {
      "type": "way",
      "id": 821235793,
      "bounds": {
        "minlat": 51.5070258,
        "minlon": -0.2233336,
        "maxlat": 51.5084153,
        "maxlon": -0.2210264
      },
      "nodes": [
        7667866865, 7667866866, 7667866867, 7667866868, 7667866869, 7667866870,
        7667866871, 7667866872, 7667866873, 2342308192, 2342308200, 2342308204,
        2342308209, 7667866874, 7667866875, 7667866876, 7667866877, 7667866878,
        7667866879, 7667866880, 7667866881, 7667866882, 7667866883, 7667866884,
        7667886585, 7667886586, 7667886587, 7667886588, 7667866865
      ],
      "geometry": [
        {
          "lat": 51.5075389,
          "lon": -0.2228942
        },
        {
          "lat": 51.5073111,
          "lon": -0.2227966
        },
        {
          "lat": 51.507301,
          "lon": -0.2228332
        },
        {
          "lat": 51.507172,
          "lon": -0.2227803
        },
        {
          "lat": 51.507172,
          "lon": -0.2227397
        },
        {
          "lat": 51.5070258,
          "lon": -0.2226934
        },
        {
          "lat": 51.5072074,
          "lon": -0.2216176
        },
        {
          "lat": 51.5072782,
          "lon": -0.2216298
        },
        {
          "lat": 51.5073137,
          "lon": -0.2215038
        },
        {
          "lat": 51.5073511,
          "lon": -0.2215606
        },
        {
          "lat": 51.5076084,
          "lon": -0.221633
        },
        {
          "lat": 51.5078709,
          "lon": -0.2216586
        },
        {
          "lat": 51.5080936,
          "lon": -0.22165
        },
        {
          "lat": 51.5081866,
          "lon": -0.2210264
        },
        {
          "lat": 51.5084153,
          "lon": -0.2211244
        },
        {
          "lat": 51.5084143,
          "lon": -0.2212622
        },
        {
          "lat": 51.5083979,
          "lon": -0.2214452
        },
        {
          "lat": 51.5083776,
          "lon": -0.2216119
        },
        {
          "lat": 51.5083536,
          "lon": -0.2217521
        },
        {
          "lat": 51.5082981,
          "lon": -0.2219394
        },
        {
          "lat": 51.5082309,
          "lon": -0.2221119
        },
        {
          "lat": 51.5081853,
          "lon": -0.2222176
        },
        {
          "lat": 51.5080082,
          "lon": -0.2233336
        },
        {
          "lat": 51.5079298,
          "lon": -0.2232889
        },
        {
          "lat": 51.5079867,
          "lon": -0.2229189
        },
        {
          "lat": 51.507912,
          "lon": -0.2228701
        },
        {
          "lat": 51.5080727,
          "lon": -0.221809
        },
        {
          "lat": 51.5077159,
          "lon": -0.2216972
        },
        {
          "lat": 51.5075389,
          "lon": -0.2228942
        }
      ],
      "tags": {
        "amenity": "cinema",
        "brand": "Vue",
        "brand:wikidata": "Q2535134",
        "brand:wikipedia": "en:Vue Cinemas",
        "building": "yes",
        "level": "3",
        "name": "Vue"
      }
    },
    {
      "type": "way",
      "id": 1013873133,
      "bounds": {
        "minlat": 51.4257964,
        "minlon": 0.1010268,
        "maxlat": 51.4263604,
        "maxlon": 0.1012151
      },
      "nodes": [
        4273319362, 4273319361, 4273319360, 9353964378, 5181069128, 5181069131,
        5181069132, 5077117390, 4273319344, 4273319362
      ],
      "geometry": [
        {
          "lat": 51.4263516,
          "lon": 0.1012151
        },
        {
          "lat": 51.4263604,
          "lon": 0.1010965
        },
        {
          "lat": 51.4263207,
          "lon": 0.1010363
        },
        {
          "lat": 51.425905,
          "lon": 0.1010268
        },
        {
          "lat": 51.4257974,
          "lon": 0.1010277
        },
        {
          "lat": 51.4257964,
          "lon": 0.1011611
        },
        {
          "lat": 51.4258113,
          "lon": 0.1011834
        },
        {
          "lat": 51.4258983,
          "lon": 0.1011812
        },
        {
          "lat": 51.425986,
          "lon": 0.1011877
        },
        {
          "lat": 51.4263516,
          "lon": 0.1012151
        }
      ],
      "tags": {
        "addr:city": "Sidcup",
        "addr:housenumber": "106",
        "addr:postcode": "DA14 6DS",
        "addr:street": "High Street",
        "amenity": "cinema",
        "building": "commercial",
        "name": "Library & Sidcup Storyteller Cinema"
      }
    },
    {
      "type": "way",
      "id": 1240494131,
      "bounds": {
        "minlat": 51.5028843,
        "minlon": 0.0041541,
        "maxlat": 51.503181,
        "maxlon": 0.0045417
      },
      "nodes": [
        11525218810, 11525218804, 11525218803, 11525218802, 11525218801,
        11525218799, 1489907267, 11525218800, 11525218814, 11525218808,
        11525218807, 11525218809, 11525218810
      ],
      "geometry": [
        {
          "lat": 51.5030066,
          "lon": 0.0045417
        },
        {
          "lat": 51.5031289,
          "lon": 0.0045199
        },
        {
          "lat": 51.5031063,
          "lon": 0.0043179
        },
        {
          "lat": 51.503181,
          "lon": 0.0042758
        },
        {
          "lat": 51.5031483,
          "lon": 0.0041541
        },
        {
          "lat": 51.5030897,
          "lon": 0.0041866
        },
        {
          "lat": 51.5030271,
          "lon": 0.0042087
        },
        {
          "lat": 51.5029639,
          "lon": 0.0042167
        },
        {
          "lat": 51.5029002,
          "lon": 0.0042167
        },
        {
          "lat": 51.5028843,
          "lon": 0.0043535
        },
        {
          "lat": 51.5029164,
          "lon": 0.0043549
        },
        {
          "lat": 51.5029978,
          "lon": 0.0043494
        },
        {
          "lat": 51.5030066,
          "lon": 0.0045417
        }
      ],
      "tags": {
        "addr:city": "London",
        "addr:country": "GB",
        "addr:housename": "The O2",
        "addr:housenumber": "1",
        "addr:postcode": "SE10 0DX",
        "addr:street": "Peninsula Square",
        "addr:unit": "L17",
        "amenity": "cinema",
        "brand": "Cineworld",
        "brand:wikidata": "Q5120901",
        "check_date": "2025-02-27",
        "cinema:3D": "yes",
        "description": "The giant main auditorium seats up to 770 movie fans and has the biggest 3D cinema screen in Europe.",
        "fhrs:id": "695279",
        "indoor": "room",
        "level": "0",
        "name": "Cineworld",
        "phone": "+44 330 333 4444",
        "screen": "11",
        "toilets:wheelchair": "yes",
        "website": "https://www.cineworld.co.uk/cinemas/london-the-o2-greenwich/077",
        "wheelchair": "yes"
      }
    },
    {
      "type": "way",
      "id": 1249434121,
      "bounds": {
        "minlat": 51.5396974,
        "minlon": -0.0585153,
        "maxlat": 51.5397189,
        "maxlon": -0.0584295
      },
      "nodes": [
        11613026781, 11613026782, 11613026783, 11613026784, 11613026781
      ],
      "geometry": [
        {
          "lat": 51.5397179,
          "lon": -0.0585153
        },
        {
          "lat": 51.5396974,
          "lon": -0.0585146
        },
        {
          "lat": 51.5396984,
          "lon": -0.0584295
        },
        {
          "lat": 51.5397189,
          "lon": -0.0584302
        },
        {
          "lat": 51.5397179,
          "lon": -0.0585153
        }
      ],
      "tags": {
        "amenity": "cinema",
        "building": "container",
        "name": "Institute Of Light"
      }
    },
    {
      "type": "way",
      "id": 1360397129,
      "bounds": {
        "minlat": 51.5434826,
        "minlon": -0.0066894,
        "maxlat": 51.5437318,
        "maxlon": -0.0063971
      },
      "nodes": [
        12593509812, 12593509818, 12593509793, 4676093419, 12593509894,
        12593509902, 12593509416, 10279713004, 12593509436, 12593509796,
        12593509795, 12593509794, 12593509812
      ],
      "geometry": [
        {
          "lat": 51.5435166,
          "lon": -0.0066166
        },
        {
          "lat": 51.543536,
          "lon": -0.0065848
        },
        {
          "lat": 51.5434826,
          "lon": -0.0065003
        },
        {
          "lat": 51.5435369,
          "lon": -0.006448
        },
        {
          "lat": 51.5435698,
          "lon": -0.006436
        },
        {
          "lat": 51.5436187,
          "lon": -0.0064114
        },
        {
          "lat": 51.5436672,
          "lon": -0.0063971
        },
        {
          "lat": 51.5436804,
          "lon": -0.0064469
        },
        {
          "lat": 51.5437087,
          "lon": -0.006558
        },
        {
          "lat": 51.5437318,
          "lon": -0.0066519
        },
        {
          "lat": 51.5436745,
          "lon": -0.0066894
        },
        {
          "lat": 51.5436645,
          "lon": -0.0066492
        },
        {
          "lat": 51.5435166,
          "lon": -0.0066166
        }
      ],
      "tags": {
        "addr:city": "London",
        "addr:floor": "2",
        "addr:housename": "Westfield Stratford City",
        "addr:postcode": "E20 1ET",
        "addr:street": "Montfichet Road",
        "addr:suburb": "Stratford",
        "addr:unit": "308 The Loft",
        "amenity": "cinema",
        "brand": "Vue",
        "brand:wikidata": "Q2535134",
        "brand:wikipedia": "en:Vue Cinemas",
        "check_date": "2024-02-20",
        "fhrs:id": "640513",
        "indoor": "room",
        "level": "2",
        "name": "Vue Westfield Stratford City",
        "operator": "Vue",
        "room": "shop",
        "source": "survey/Vue website",
        "website": "https://www.myvue.com/cinema/westfield-stratford-city",
        "wikidata": "Q42203261"
      }
    }
  ]
}
